school_name,address,latitude,longitude
(가칭)서울온라인학교,서울특별시 성동구 왕십리로 199,37.55526422,127.0411418
가락고등학교,서울특별시 송파구 송이로 42,37.50105633,127.1164258
가락중학교,서울특별시 송파구 송이로 45,37.50233971,127.1189713
가산중학교,서울특별시 금천구 시흥대로115길 48,37.46877706,126.8944749
가원중학교,서울특별시 송파구 중대로10길 40-18,37.49096833,127.1229789
가재울고등학교,서울특별시 서대문구 수색로 100-35,37.5743637,126.9095297
가재울중학교,서울특별시 서대문구 수색로 100-75,37.57509835,126.9099742
가톨릭대학교,서울 서초구 반포동 505,37.5000795911196,127.005246798552
가톨릭대학교,서울 종로구 창경궁로 296-12(혜화동) ,37.5849009775207,127.004770664086
감리교신학대학교,서울 서대문구 냉천동 감리교신학대학,37.5667821636121,126.961963463309
강남중학교,서울특별시 동작구 대방동15길 29,37.50276263,126.9233466
강동고등학교,서울특별시 강동구 구천면로 572,37.54991665,127.1606683
강동중학교,서울특별시 강동구 풍산로 237,37.56965025,127.177836
강명중학교,서울특별시 강동구 상일로12길 56,37.55561278,127.1746084
강북중학교,서울특별시 강북구 한천로150길 67,37.6449159,127.0253734
강빛중학교,서울특별시 강동구 아리수로93다길 1,37.57434332,127.1707749
강서공업고등학교,서울특별시 강서구 방화대로47길 9,37.57603409,126.8161817
강신중학교,서울특별시 양천구 남부순환로 604,37.51513716,126.8381601
강일고등학교,서울특별시 강동구 아리수로98길 40,37.5638281,127.1779035
강일중학교,서울특별시 강동구 고덕로27길 12,37.55534535,127.1380086
강현중학교,서울특별시 동작구 상도로13라길 22,37.50311599,126.9307563
개봉중학교,서울특별시 구로구 고척로21나길 68,37.50352932,126.8423998
개운중학교,서울특별시 성북구 북악산로 935,37.59462665,127.0248421
개웅중학교,서울특별시 구로구 개봉로11길 81,37.4875269,126.8510711
개원중학교,서울특별시 강남구 영동대로 101,37.49159053,127.0719003
개포고등학교,서울특별시 강남구 개포로 402,37.4850426,127.0593055
개포중학교,서울특별시 강남구 선릉로 9,37.48044739,127.0624029
거원중학교,서울특별시 송파구 양산로2길 30,37.48769648,127.1465426
건국대학교,서울 광진구 화양동,37.5464762611364,127.071367614735
건국대학교사범대학부속고등학교,서울특별시 광진구 능동로 120,37.53918267,127.0747119
건국대학교사범대학부속중학교,서울특별시 광진구 자양로 145-1,37.54172407,127.0815971
경기고등학교,서울특별시 강남구 영동대로 643,37.51756454,127.0560755
경기기계공업고등학교,서울특별시 노원구 공릉로 264,37.63224005,127.0749285
경기대학교,서울 서대문구 경기대로9길 24 경기대학교,37.5651946923921,126.962224150341
경기상업고등학교,서울특별시 종로구 자하문로 136,37.58925853,126.9700571
경기여자고등학교부설방송통신고등학교,서울특별시 강남구 삼성로 29,37.48695452,127.0661236
경기초등학교,서울특별시 서대문구 경기대로9길 10,37.56511029,126.9628606
경동고등학교부설방송통신고등학교,서울특별시 성북구 보문로29길 49,37.58594181,127.0145793
경문고등학교,서울특별시 동작구 동작대로 171,37.49341886,126.9822734
경복고등학교부설방송통신고등학교,서울특별시 종로구 자하문로28가길 9,37.58594567,126.9715109
경복비즈니스고등학교,서울특별시 강서구 화곡로 379,37.55809726,126.8526703
경복여자고등학교,서울특별시 강서구 화곡로63길 40,37.55782183,126.8505957
경복초등학교,서울특별시 광진구 천호대로130길 58,37.54981386,127.0867934
경서중학교,서울특별시 강서구 양천로59길 31,37.56124186,126.857764
경성중학교,서울특별시 마포구 성미산로 111,37.56351064,126.9191663
경수중학교,서울특별시 성동구 뚝섬로13길 14,37.53950904,127.0592712
경신중학교,서울특별시 종로구 혜화로 74,37.59220227,126.999531
경원중학교,서울특별시 서초구 신반포로33길 39,37.5115816,127.0090183
경인고등학교,서울특별시 구로구 경인로46길 31,37.49599268,126.8654289
경인중학교,서울특별시 구로구 경인로 301,37.49846566,126.8536725
경일중학교,서울특별시 성동구 성수일로 27,37.54380838,127.0478538
경희대학교,서울 동대문구 회기동 경희대학교,37.5907885967282,127.05537245757
경희중학교,서울특별시 동대문구 경희대로 26,37.59394914,127.054891
계성고등학교,서울특별시 성북구 길음로 63,37.6074936,127.0201836
계성초등학교,서울특별시 서초구 신반포로19길 23,37.50493572,126.9966544
고덕중학교,서울특별시 강동구 동남로82길 94,37.56035843,127.1617619
고려대학교,서울 성북구 안암동 고려대학교,37.5858189680129,127.021344106907
고려대학교사범대학부속중학교,서울특별시 성북구 정릉로 161,37.60804769,127.0026161
고명중학교,서울특별시 성북구 북악산로 870,37.59767414,127.0191875
고척고등학교,서울특별시 구로구 중앙로15길 162,37.50804938,126.8498691
고척중학교,서울특별시 구로구 중앙로3길 20,37.49974083,126.8613425
공릉중학교,서울특별시 노원구 노원로1길 42,37.62213595,127.0835013
공항고등학교,서울특별시 강서구 방화대로34길 43,37.57046109,126.8185198
공항중학교,서울특별시 강서구 방화대로 241,37.56217456,126.814809
관악고등학교,서울특별시 영등포구 영등포로6길 26,37.52179166,126.8829235
관악중학교,서울특별시 관악구 남부순환로237길 60,37.48125828,126.9619123
광남고등학교,서울특별시 광진구 아차산로70길 17-16,37.54151472,127.1012139
광남중학교,서울특별시 광진구 아차산로70길 17-62,37.54083041,127.1016439
광문고등학교,서울특별시 강동구 동남로 968,37.56046163,127.1585465
광성고등학교,서울특별시 마포구 신수로8길 20,37.54869756,126.9359696
광성중학교,서울 마포구 신수로8길 20,37.54869756,126.9359696
광성하늘빛학교,서울특별시 송파구 올림픽로 625,37.53738132,127.1222355
광신중학교,서울특별시 관악구 광신길 141,37.4644762,126.9259406
광양고등학교,서울특별시 광진구 자양로3가길 31,37.52937892,127.0851823
광양중학교,서울특별시 광진구 자양로3길 7,37.53089134,127.08617
광영여자고등학교,서울특별시 양천구 남부순환로30길 17,37.5371981,126.8232759
광운대학교,서울특별시 노원구 월계동 447-1,37.6197033224113,127.059670655809
광운중학교,서울특별시 노원구 광운로1길 24,37.6192432,127.0565408
광운초등학교,서울특별시 성북구 한천로 694,37.61897514,127.055244
광장중학교,서울특별시 광진구 광장로1길 1,37.54717752,127.1019276
광진중학교,서울특별시 광진구 뚝섬로64길 45,37.53221959,127.0901621
광희중학교,서울특별시 성동구 독서당로62길 46,37.55115453,127.03398
교남학교,서울특별시 강서구 까치산로22길 38,37.54797109,126.852349
구로고등학교,서울특별시 구로구 가마산로27길 45,37.49884008,126.8903092
구로중학교,서울특별시 구로구 구로중앙로 48,37.49485972,126.8910999
구룡중학교,서울특별시 강남구 선릉로 103,37.48621294,127.0565075
구산중학교,서울특별시 은평구 갈현로15길 20-23,37.60987202,126.9094887
구암고등학교,서울특별시 관악구 성현로 57,37.49255401,126.9502192
구암중학교,서울특별시 관악구 성현로 53,37.49276624,126.9490357
구의중학교,서울특별시 광진구 광나루로30길 80,37.5428503,127.0788404
구일고등학교,서울특별시 구로구 구일로 90-51,37.49350529,126.8746185
구일중학교,서울특별시 구로구 구일로 90-133,37.49530091,126.8737702
구현고등학교,서울특별시 구로구 경인로53가길 17,37.50228322,126.8744182
국립국악중학교,서울특별시 강남구 개포로22길 65,37.47623974,127.0512138
국립전통예술중학교,서울특별시 금천구 시흥대로38길 62,37.44637105,126.9064621
국민대학교,서울 성북구 정릉3동 국민대학교,37.6089294464123,127.004190410838
국사봉중학교,서울특별시 동작구 양녕로20길 20,37.49353263,126.9440557
국제예술대학,서울 강남구 논현동 79,37.5169057779708,127.031003951379
그리스도대학교,서울 강서구 화곡6동 그리스도대학교,37.551543060786,126.850958505315
금성초등학교,서울특별시 중랑구 신내로21길 55,37.61531513,127.0898585
금옥중학교,서울특별시 양천구 신정로 213,37.51096532,126.8439717
금천고등학교,서울특별시 금천구 시흥대로38길 26,37.44489502,126.9049018
금천문화예술정보학교,서울특별시 금천구 남부순환로126길 25,37.47926857,126.9072194
금호고등학교,서울특별시 성동구 금호로 118,37.5536215,127.0234338
금호여자중학교,서울특별시 중구 청구로 6,37.5580382,127.0204612
길음중학교,서울특별시 성북구 길음로 144,37.61403346,127.0177524
꿈타래학교,서울특별시 관악구 신림로 67,37.47050417,126.9419406
난곡중학교,서울특별시 금천구 문성로 67,37.47804558,126.9107916
난우중학교,서울특별시 관악구 난곡로16길 32,37.46680396,126.9228283
남강중학교,서울특별시 관악구 난곡로34길 80,37.47137567,126.9249091
남대문중학교,서울특별시 성북구 한천로 660-30,37.61853601,127.0559811
남서울중학교,서울특별시 관악구 남부순환로172길 97,37.48213625,126.9210371
남성중학교,서울특별시 동작구 남부순환로269길 166,37.47900822,126.9724141
내곡중학교,서울특별시 서초구 청계산로7길 9-20,37.45200325,127.0544446
노곡중학교,서울특별시 도봉구 노해로70길 95,37.64880251,127.0537437
노원고등학교,서울특별시 노원구 노원로 586,37.66180319,127.0540195
노원중학교,서울특별시 노원구 동일로213길 26,37.64936114,127.059692
노일중학교,서울특별시 노원구 동일로231길 24,37.67228886,127.0538897
녹천중학교,서울특별시 노원구 월계로 376,37.63107911,127.0617422
누리학교,서울특별시 동작구 상도로 53,37.49997351,126.9265216
누원고등학교,서울특별시 도봉구 마들로 849,37.68556896,127.0499327
다니엘학교,서울특별시 서초구 헌릉로468길 21-16,37.4601639,127.0923191
단국대학교사범대학부속중학교,서울특별시 강남구 도곡로64길 21,37.49561749,127.0577682
당곡고등학교,서울특별시 관악구 봉천로21길 108,37.49176034,126.9342464
당곡중학교,서울특별시 관악구 봉천로13길 101,37.4923589,126.9326777
당산서중학교,서울특별시 영등포구 당산로41길 12,37.53248394,126.8988251
당산중학교,서울특별시 영등포구 버드나루로 160,37.53203308,126.907614
대경중학교,서울특별시 중구 매봉18길 111,37.55637326,127.0169792
대광중학교,서울특별시 동대문구 안암로 6,37.57795467,127.0253235
대광초등학교,서울특별시 성북구 안암로 5,37.57915104,127.0234459
대동세무고등학교,서울특별시 종로구 계동길 84-10,37.58158273,126.9879513
대림중학교,서울특별시 영등포구 시흥대로185길 6,37.49213862,126.906943
대명중학교,서울특별시 강남구 역삼로87길 26,37.50631894,127.0607781
대방중학교,서울특별시 동작구 여의대방로10길 24,37.49543678,126.9130162
대성중학교,서울특별시 은평구 갈현로29길 51-24,37.62314228,126.9097907
대신중학교,서울특별시 종로구 사직로 9,37.57312377,126.9612545
대영고등학교,서울특별시 영등포구 도림로86길 16,37.50365306,126.9055181
대영중학교,서울특별시 영등포구 도림로80가길 14,37.50343784,126.905208
대왕중학교,서울특별시 강남구 광평로20길 7,37.48346033,127.0873381
대원국제중학교,서울특별시 광진구 용마산로22길 26,37.56245022,127.0893767
대일고등학교,서울특별시 강서구 등촌로 105,37.5394887,126.8634031
대일관광고등학교,서울특별시 양천구 신정이펜1로 11,37.51141377,126.8349067
대일외국어고등학교,서울특별시 성북구 서경로 116,37.61330459,127.014176
대진고등학교,서울특별시 노원구 공릉로62가길 47,37.63780685,127.07609
대진디자인고등학교,서울특별시 강남구 광평로39길 93,37.49042815,127.0959793
대진여자고등학교,서울특별시 노원구 공릉로 438,37.64612482,127.0671966
대청중학교,서울특별시 강남구 양재천로 321,37.49034855,127.0580335
대치중학교,서울특별시 강남구 남부순환로378길 39,37.48457751,127.0470652
덕산중학교,서울특별시 은평구 가좌로 400,37.6022574,126.9046771
덕성여자고등학교,서울특별시 종로구 율곡로3길 50,37.57776082,126.9835581
덕성여자대학교,서울특별시 도봉구 삼양로 144길 33,37.6524704146763,127.015834944956
덕성여자중학교,서울특별시 종로구 율곡로3길 49,37.57778598,126.9819092
덕수고등학교,서울특별시 송파구 위례북로 10,37.48559162,127.1470596
덕수중학교,서울 중구 마른내로9길 10,37.56557957,126.9969973
덕원중학교,서울특별시 강서구 강서로45길 91-44,37.54862258,126.8290245
덕일전자공업고등학교,서울특별시 구로구 서해안로21길 5-12,37.49053652,126.8371345
덜위치칼리지서울영국학교,서울특별시 서초구 신반포로15길 6,37.50429038,126.9953408
도곡중학교,서울특별시 강남구 언주로57길 31,37.49229373,127.0447856
도봉중학교,서울특별시 도봉구 마들로 671,37.67088384,127.0458717
도선고등학교,서울특별시 성동구 마장로 156,37.56684395,127.0269957
독산고등학교,서울특별시 금천구 문성로 64,37.47621872,126.9109396
동구여자중학교,서울특별시 성북구 성북로8길 71,37.59410659,127.0082155
동국대학교,서울 중구 필동3가 동국대학교,37.5584990846546,126.997003047238
동국대학교사범대학부속여자중학교,서울특별시 광진구 광나루로36길 47,37.54192936,127.0869731
동국대학교사범대학부속중학교,서울특별시 동대문구 장안벚꽃로 201,37.57804718,127.075133
동대문중학교,서울특별시 동대문구 사가정로 59,37.57452207,127.0519943
동덕여자대학교,서울 성북구 하월곡2동 동덕여자대학교,37.5893588153919,127.016702905651
동덕여자중학교,서울특별시 서초구 효령로2길 123-5,37.47584606,126.9926158
동도중학교,서울특별시 마포구 백범로 139,37.54667508,126.948479
동마중학교,서울특별시 성동구 마조로11길 18,37.56280251,127.0403512
동명생활경영고등학교,서울특별시 은평구 통일로 793,37.61441879,126.9228204
동명여자중학교,서울특별시 서대문구 독립문로 49,37.56861542,126.9622529
동북중학교,서울특별시 강동구 강동대로 305,37.52024061,127.1394507
동산초등학교,서울특별시 중구 매봉18길 109,37.55620463,127.0167254
동성중학교,서울특별시 종로구 대학로 156,37.58496996,127.0030976
동신중학교,서울특별시 강동구 진황도로 72,37.53676952,127.1343666
동양고등학교,서울특별시 강서구 허준로 50,37.56903024,126.8468888
동양미래대학교,서울시 구로구 경인로 445 동양미래대학교 (고척동 62-160),37.4999957879198,126.868169656727
동양중학교,서울특별시 동작구 흑석로9길 94,37.51022314,126.9574775
동원중학교,서울특별시 중랑구 양원역로 32,37.60382264,127.1094981
동일중학교,서울특별시 금천구 탑골로10길 45,37.45192067,126.915824
동작고등학교,서울특별시 동작구 솔밭로 51,37.48260194,126.9650863
동작중학교,서울특별시 동작구 동작대로39가길 83,37.49546195,126.9778016
둔촌고등학교,서울특별시 강동구 명일로 140,37.53143258,127.1438087
둔촌중학교,서울특별시 강동구 진황도로61길 25-30,37.53083609,127.1463317
등명중학교,서울특별시 강서구 공항대로39길 39,37.56019335,126.8433041
등원중학교,서울특별시 강서구 화곡로65길 50,37.55973402,126.8518154
등촌고등학교,서울특별시 강서구 공항대로39길 115,37.56294522,126.8450461
등촌중학교,서울특별시 강서구 공항대로 484-12,37.55248221,126.8592148
디지털서울문화예술대학교,서울시 서대문구 통일로 37길 60 (홍제동 318-18),37.5854437357557,126.943879163212
리라아트고등학교,서울특별시 중구 소파로2길,37.55766227,126.9877785
리라초등학교,서울특별시 중구 소파로2길 7,37.5578197,126.9879807
마곡중학교,서울특별시 강서구 마곡중앙5로 58,37.5680344,126.821326
마곡하늬중학교,서울특별시 강서구 마곡서1로 16,37.5581679,126.8209848
마장중학교,서울특별시 성동구 마장로35나길 31,37.56833887,127.0416051
마포중학교,서울특별시 강서구 화곡로 403,37.56002771,126.8528649
면목고등학교,서울특별시 중랑구 용마산로72길 36-14,37.58466341,127.0972706
면목중학교,서울특별시 중랑구 용마산로70길 37,37.58301146,127.0965893
명덕여자중학교,서울특별시 강서구 강서로47길 34-10,37.55386948,126.8339773
명일여자고등학교,서울특별시 강동구 명일로 350,37.54977633,127.1495815
명일중학교,서울특별시 강동구 양재대로156길 57,37.55765635,127.1472985
명지대학교 인문캠퍼스,서울 서대문구 남가좌동 50-3,37.5802275436823,126.923120664028
명지전문대학,서울 서대문구 가좌로 134 명지전문대학 ,37.5852831941405,126.925647822893
명지중학교,서울특별시 서대문구 명지2길 56,37.58491135,126.9270902
명지초등학교,서울특별시 서대문구 명지2길 32-20,37.58362994,126.9282315
목동중학교,서울특별시 양천구 목동동로 172,37.5209572,126.8714434
목운중학교,서울특별시 양천구 목동동로 235,37.52700952,126.8730442
목일중학교,서울특별시 양천구 목동동로8길 70,37.51350849,126.8742688
무학여자고등학교,서울특별시 성동구 고산자로 197,37.55762633,127.0338809
무학중학교,서울특별시 성동구 행당로 120,37.55770119,127.0319922
문래중학교,서울특별시 영등포구 선유서로13길 6,37.52036241,126.8846709
문성중학교,서울특별시 금천구 독산로102길 78,37.4754682,126.9084938
문일중학교,서울특별시 금천구 시흥대로47길 45,37.44891526,126.8987207
문정고등학교,서울특별시 송파구 송이로34길 62,37.4851785,127.1266921
문정중학교,서울특별시 송파구 문정로 73,37.488392,127.1302863
문창중학교,서울특별시 동작구 여의대방로22나길 40,37.49586094,126.9224055
문현고등학교,서울특별시 송파구 충민로 115,37.48131355,127.1287623
문현중학교,서울특별시 송파구 충민로 99,37.4805588,127.1282441
미래산업과학고등학교,서울특별시 노원구 덕릉로82길 54,37.65877948,127.0784407
미림마이스터고등학교,서울특별시 관악구 호암로 546,37.4661018,126.9319279
미성중학교,서울특별시 관악구 문성로16길 40,37.47538281,126.9120889
밀알학교,서울특별시 강남구 일원로 90,37.48578186,127.0820718
반포고등학교,서울특별시 서초구 고무래로 71,37.50270273,127.0165107
반포중학교,서울특별시 서초구 신반포로 67,37.50305237,126.991604
방배중학교,서울특별시 서초구 동광로 144,37.49486827,126.997827
방산고등학교,서울특별시 송파구 오금로27길 18,37.50839952,127.1204696
방산중학교,서울특별시 송파구 오금로29길 31,37.50934391,127.1215678
방원중학교,서울특별시 강서구 금낭화로 268,37.5757386,126.8082204
방이중학교,서울특별시 송파구 오금로11길 64,37.5149508,127.1133737
방학중학교,서울특별시 도봉구 시루봉로 188,37.66545122,127.030859
방화중학교,서울특별시 강서구 개화동로27길 9,37.56433471,126.8071069
배명중학교,서울특별시 송파구 삼학사로 11,37.4976895,127.0958118
배문중학교,서울특별시 용산구 효창원로 258,37.54991872,126.9639041
배재중학교,서울특별시 강동구 고덕로 227,37.55505598,127.1501605
배화여자대학교,서울 종로구 필운대로 1길 34 배화여자대학교,37.5795440101952,126.967291871532
배화여자중학교,서울특별시 종로구 필운대로1길 34,37.57954401,126.9672919
백석예술대학교,서울 서초구 방배로9길 23 백석예술대학교,37.4803713866046,126.996896954333
백석중학교,서울특별시 강서구 등촌로51나길 35,37.54829091,126.8589539
백암고등학교,서울특별시 양천구 신정로13길 16,37.51225336,126.8444952
백운중학교,서울특별시 도봉구 도봉로129길 50,37.65628068,127.0356223
번동중학교,서울특별시 강북구 오현로35길 87,37.63245569,127.0362064
보성여자중학교,서울특별시 용산구 신흥로3가길 66,37.54308154,126.9842842
보성중학교,서울특별시 송파구 양재대로 1278,37.52008989,127.1357293
보인중학교,서울특별시 송파구 오금로49길 18,37.4975692,127.1395178
봉림중학교,서울특별시 관악구 장군봉길 72,37.48119817,126.9377027
봉영여자중학교,서울특별시 양천구 목동동로2길 68,37.50921598,126.8601984
봉원중학교,서울특별시 관악구 관악로24가길 15,37.48410274,126.9588909
봉은중학교,서울특별시 강남구 영동대로128길 59,37.51897667,127.0623894
봉화중학교,서울특별시 중랑구 망우로70길 89,37.59582753,127.1043156
북서울중학교,서울특별시 도봉구 도봉로169가길 33,37.68157042,127.0425735
북악중학교,서울특별시 성북구 정릉로12길 41,37.60700905,127.0016095
불광중학교,서울특별시 은평구 불광로 180,37.62317982,126.9323892
불암고등학교,서울특별시 노원구 중계로 155,37.64915853,127.0803058
불암중학교,서울특별시 노원구 한글비석로5길 45,37.64546974,127.0732172
사당중학교,서울특별시 동작구 사당로9가길 58,37.48776119,126.9685407
사이버한국외국어대학교,서울 동대문구 이문동 한국외국어대학교,37.6004055110663,127.066373060068
삼각산고등학교,서울특별시 강북구 삼양로19길 40,37.61628573,127.0201079
삼각산중학교,서울특별시 강북구 삼양로19길 141,37.61604124,127.0143427
삼선중학교,서울특별시 성북구 동소문로3길 69,37.59174439,127.0078729
삼성고등학교,서울특별시 관악구 신림로 41,37.4691077,126.9440108
삼성중학교,서울특별시 관악구 신림로3가길 39-24,37.4676059,126.9425132
삼육대학교,서울시 노원구 화랑로 815(공릉2동 26-21),37.643357369067,127.108850343184
삼육보건대학교,서울 동대문구 휘경2동,37.5901076994928,127.068614843098
삼정중학교,서울특별시 강서구 금낭화로 210,37.58129504,126.8102955
상경중학교,서울특별시 노원구 동일로227길 61,37.66714877,127.0537053
상계고등학교,서울특별시 노원구 노해로 432,37.65272468,127.0554534
상계제일중학교,서울특별시 노원구 덕릉로86길 29-15,37.6610756,127.0780785
상계중학교,서울특별시 노원구 노원로 398,37.6526541,127.0685525
상도중학교,서울특별시 동작구 사당로2가길 72,37.4909219,126.9614756
상명대학교,서울 종로구 홍지동 상명대학교,37.6007910021228,126.956587544473
상명대학교사범대학부속여자중학교,서울특별시 종로구 홍지문2길 20,37.60410891,126.9551595
상명대학교사범대학부속초등학교,서울특별시 종로구 홍지문2길 1,37.60074851,126.9564255
상명중학교,서울특별시 노원구 덕릉로 553,37.64954079,127.0677013
상명초등학교,서울특별시 노원구 덕릉로 541,37.64872762,127.0669845
상문고등학교,서울특별시 서초구 명달로 45,37.47975543,127.0039168
상봉중학교,서울특별시 중랑구 상봉중앙로8나길 28,37.60152799,127.0901246
상신중학교,서울특별시 은평구 증산로15길 61,37.58978547,126.9064249
상암고등학교,서울특별시 마포구 월드컵북로 445,37.58134141,126.8833945
상암중학교,서울특별시 마포구 상암산로1길 26,37.57905692,126.8875508
상원중학교,서울특별시 노원구 수락산로 182,37.67172498,127.0597836
상일중학교,서울특별시 강동구 천호대로219길 61,37.54858748,127.1708235
상현중학교,서울특별시 동작구 사당로2길 2-19,37.49415578,126.9606077
서강대학교,서울 마포구 신수동 서강대학교,37.5470206619263,126.935226865858
서경대학교,서울 성북구 정릉4동 서경대학교,37.6133765955269,127.00699953542
서라벌고등학교,서울특별시 노원구 한글비석로5길 18,37.64525653,127.0758406
서라벌중학교,서울특별시 강북구 삼양로155길 37-9,37.65698403,127.0114883
서문여자중학교,서울특별시 서초구 동광로12길 84,37.48891973,126.9845458
서서울생활과학고등학교,서울특별시 구로구 오리로 1355-10,37.50382919,126.82826
서연중학교,서울특별시 서대문구 연희로11마길 9-6,37.56821623,126.9271377
서운중학교,서울특별시 서초구 서운로 115,37.49394851,127.0245382
서울가곡초등학교,서울특별시 강서구 공항대로36길 74,37.55570761,126.8361031
서울가동초등학교,서울특별시 송파구 중대로20길 47,37.49725593,127.1297903
서울가락초등학교,서울특별시 송파구 송파대로37길 45,37.49987464,127.1072149
서울가산초등학교,서울특별시 금천구 남부순환로 1304-11,37.47814772,126.896184
서울가양초등학교,서울 강서구 허준로 186,37.56221719,126.8585216
서울가원초등학교,서울특별시 송파구 중대로4길 8,37.48944278,127.1110287
서울가인초등학교,서울특별시 도봉구 도봉로136다길 4,37.6594678,127.0429509
서울가재울초등학교,서울특별시 서대문구 모래내로15길 61,37.57376442,126.918388
서울가주초등학교,서울특별시 송파구 오금로40길 37,37.49656722,127.1292804
서울갈산초등학교,서울특별시 양천구 목동로 31,37.51237156,126.8702299
서울갈현초등학교,서울특별시 은평구 연서로29길 31,37.61977964,126.9166834
서울강남초등학교,서울특별시 동작구 강남초등길 15,37.50620445,126.9535672
서울강덕초등학교,서울특별시 강동구 동남로82길 94-54,37.55954748,127.1604836
서울강동초등학교,서울특별시 강동구 상암로14길 77,37.5463638,127.1301872
서울강명초등학교,서울특별시 강동구 상일로 74-1,37.55470604,127.1733745
서울강서초등학교,서울특별시 양천구 오목로 31,37.52241272,126.8409879
서울강솔초등학교,서울특별시 강동구 고덕로97길 80,37.56186962,127.1802671
서울강신초등학교,서울특별시 양천구 월정로 280,37.54209971,126.8295837
서울강월초등학교,서울특별시 양천구 신월로 97,37.51634172,126.8334319
서울강일초등학교,서울특별시 강동구 아리수로98길 24,37.56525568,127.1772125
서울개롱초등학교,서울특별시 송파구 문정로 211,37.49736261,127.1398881
서울개명초등학교,서울특별시 구로구 개봉로1다길 16-9,37.48305638,126.8509407
서울개봉초등학교,서울특별시 구로구 개봉로16길 30-11,37.48952806,126.8579722
서울개운초등학교,서울특별시 성북구 정릉로48길 52,37.60181095,127.0274045
서울개웅초등학교,서울특별시 구로구 개봉로11길 98,37.48857132,126.8499823
서울개원초등학교,서울특별시 강남구 선릉로 29,37.48169861,127.0594505
서울개일초등학교,서울특별시 강남구 개포로 401,37.48623538,127.0577909
서울개포초등학교,서울특별시 강남구 삼성로4길 30,37.48633492,127.07031
서울개현초등학교,서울특별시 강남구 선릉로 15,37.48102621,127.0620426
서울개화초등학교,서울특별시 강서구 양천로 11,37.57392624,126.8046942
서울거여초등학교,서울특별시 송파구 마천로25길 18,37.50502612,127.1409468
서울거원초등학교,서울특별시 송파구 양산로2길 26,37.48763851,127.144816
서울경동초등학교,서울특별시 성동구 성수일로 34,37.5438253,127.050074
서울경수초등학교,서울특별시 성동구 뚝섬로13길 22,37.54043667,127.0580668
서울경운학교,서울특별시 종로구 삼일대로 454,37.57506182,126.9874209
서울경인초등학교,서울특별시 양천구 안양천로 1009,37.53287102,126.8856957
서울경일초등학교,서울특별시 성동구 뚝섬로 332,37.5409419,127.0466051
서울계남초등학교,서울특별시 양천구 목동동로2길 54,37.51016776,126.8600159
서울계상초등학교,서울특별시 노원구 한글비석로41가길 24,37.66244641,127.0688803
서울고덕초등학교,서울특별시 강동구 아리수로82길 42,37.56129422,127.166097
서울고등학교,서울특별시 서초구 효령로 197,37.48429306,127.0049019
서울고명초등학교,서울특별시 강동구 고덕로46길 53,37.55297253,127.1474362
서울고산초등학교,서울특별시 구로구 중앙로 6,37.49932523,126.8653501
서울고원초등학교,서울특별시 구로구 경인로46길 13,37.49764543,126.8657713
서울고은초등학교,서울특별시 서대문구 모래내로 441,37.58500184,126.9439749
서울고일초등학교,서울특별시 강동구 구천면로93길 20,37.55154262,127.1694101
서울고척초등학교,서울특별시 구로구 경서로 31,37.50099779,126.8568624
서울고현초등학교,서울특별시 강동구 상일로11길 110,37.55380394,127.1660501
서울공덕초등학교,서울특별시 마포구 만리재옛길 13,37.54580335,126.9548231
서울공릉초등학교,서울특별시 노원구 동일로173길 12,37.61861201,127.0746143
서울공업고등학교,서울특별시 동작구 대방동1길 46,37.50190126,126.922363
서울공연예술고등학교,서울특별시 구로구 오리로22나길 16-26,37.49993066,126.8326087
서울공연초등학교,서울특별시 노원구 동일로192가길 16,37.62719482,127.0740308
서울공진초등학교,서울특별시 강서구 마곡서로 33,37.55783088,126.8228061
서울공항초등학교,서울특별시 강서구 마곡서1로 68,37.56311072,126.8213169
서울과학고등학교,서울특별시 종로구 혜화로 63,37.59154805,126.9984363
서울과학기술대학교,서울 노원구 공릉로 232 (공릉동 172),37.6330789279387,127.076794742851
서울관광고등학교,서울특별시 관악구 은천로15길 25,37.48781542,126.9437608
서울관악초등학교,서울 관악구 청룡4길 49,37.48102971,126.9425705
서울광남초등학교,서울특별시 광진구 아차산로70길 35,37.54096753,127.1007042
서울광장초등학교,서울특별시 광진구 광장로1길 27,37.54854922,127.1017999
서울광진초등학교,서울특별시 광진구 자양로40길 41,37.54761146,127.0913325
서울광진학교,서울특별시 광진구 강변역로 18,37.53766749,127.0915615
서울광희초등학교,서울특별시 중구 다산로 269,37.56729928,127.0156879
서울교동초등학교,서울특별시 종로구 삼일대로 446,37.57499368,126.988076
서울교육대학교,서울 서초구 서초중앙로 96(서초동 1650),37.4907404857731,127.015424537648
서울교육대학교부설초등학교,서울특별시 서초구 서초중앙로 96,37.49074049,127.0154245
서울구남초등학교,서울특별시 광진구 구의강변로 69,37.53709659,127.0922888
서울구로남초등학교,서울특별시 구로구 디지털로27길 76,37.4847046,126.8902678
서울구로초등학교,서울특별시 구로구 구로중앙로27나길 9,37.49726168,126.8860018
서울구룡초등학교,서울특별시 강남구 개포로 263,37.48119739,127.0517714
서울구산초등학교,서울특별시 은평구 서오릉로15길 16,37.61275096,126.9093765
서울구암초등학교,서울특별시 관악구 구암길 1,37.48921747,126.9462717
서울구의초등학교,서울특별시 광진구 광나루로30길 49,37.54300744,127.0803118
서울구일초등학교,서울특별시 구로구 구일로 68,37.49319187,126.8734727
서울구현초등학교,서울특별시 은평구 갈현로15길 51,37.6097896,126.9057073
서울국제고등학교,서울특별시 종로구 성균관로13길 40,37.59179115,126.9954907
서울군자초등학교,서울특별시 동대문구 한천로6길 21,37.56412232,127.0605233
서울금나래초등학교,서울특별시 금천구 시흥대로79길 37,37.45823,126.8962056
서울금동초등학교,서울특별시 금천구 금하로30길 53,37.44776578,126.9163964
서울금북초등학교,서울특별시 성동구 행당로1길 13,37.55749549,127.0235565
서울금산초등학교,서울특별시 금천구 시흥대로24길 57,37.44142118,126.9078816
서울금양초등학교,서울특별시 용산구 효창원로 137,37.54094231,126.9618319
서울금옥초등학교,서울특별시 성동구 독서당로 251,37.54630237,127.0174916
서울금융고등학교,서울특별시 양천구 가로공원로61길 19,37.53765955,126.8259146
서울금천초등학교,서울특별시 금천구 탑골로5길 60,37.45480431,126.9128869
서울금호초등학교,서울특별시 성동구 무수막길 69,37.55189794,127.0207529
서울금화초등학교,서울특별시 서대문구 통일로 165,37.56882755,126.9629414
서울기독대학교,서울 은평구 갈현로 4길 26-2호,37.6011252013344,126.91306361612
서울길동초등학교,서울특별시 강동구 양재대로116길 69,37.53859168,127.1449729
서울길원초등학교,서울특별시 성북구 길음로15길 55,37.60906464,127.0167996
서울길음초등학교,서울특별시 성북구 길음로 142,37.61363115,127.01666
서울나래학교,서울특별시 서초구 염곡안1길 25,37.46402498,127.0514985
서울난곡초등학교,서울특별시 관악구 난곡로35길 102,37.4691282,126.9163416
서울난우초등학교,서울특별시 관악구 난우길 40,37.47712059,126.9174588
서울난향초등학교,서울특별시 관악구 난향길 9,37.46282189,126.9183368
서울남명초등학교,서울특별시 양천구 중앙로23길 3,37.51568853,126.8540998
서울남부초등학교,서울특별시 관악구 남부순환로163길 14,37.48511944,126.9221838
서울남사초등학교,서울특별시 동작구 동작대로13길 22,37.48194132,126.9782344
서울남산초등학교,서울특별시 중구 퇴계로22길 17,37.55978374,126.9867767
서울남성초등학교,서울특별시 동작구 사당로23길 57-14,37.48463302,126.975578
서울남정초등학교,서울특별시 용산구 원효로64길 17-10,37.53567383,126.9648037
서울남천초등학교,서울특별시 송파구 성내천로 207,37.50132913,127.1510632
서울내발산초등학교,서울특별시 강서구 강서로46길 23,37.55088255,126.8381642
서울노량진초등학교,서울특별시 동작구 장승배기로 160,37.51171957,126.9408275
서울노원초등학교,서울특별시 노원구 동일로230나길 32,37.67359013,127.0584601
서울노일초등학교,서울특별시 노원구 동일로 1625,37.67351353,127.0551376
서울녹번초등학교,서울특별시 은평구 녹번로1길 1,37.60458339,126.9257463
서울녹천초등학교,서울특별시 노원구 마들로3길 34,37.62851011,127.0631341
서울논현초등학교,서울특별시 강남구 강남대로120길 33,37.50848958,127.0262229
서울농학교,서울특별시 종로구 필운대로 103,37.58564486,126.968775
서울누원초등학교,서울특별시 도봉구 마들로 859-44,37.68723271,127.0492672
서울다솜관광고등학교,서울특별시 종로구 종로58길 30,37.57210955,127.0174127
서울다원학교,서울특별시 성북구 성북로31길 5-15,37.59394051,126.9913605
서울답십리초등학교,서울특별시 동대문구 전농로3길 23,37.56880432,127.055427
서울당곡초등학교,서울특별시 관악구 보라매로2길 23,37.49016812,126.9303698
서울당산초등학교,서울특별시 영등포구 선유로55길 32,37.54011912,126.8962411
서울당서초등학교,서울특별시 영등포구 당산로 187,37.53202744,126.8998142
서울당중초등학교,서울특별시 영등포구 선유로 131,37.52628923,126.8894135
서울당현초등학교,서울특별시 노원구 동일로213길 52,37.64823031,127.0582525
서울대곡초등학교,서울특별시 강남구 남부순환로 3022,37.49471064,127.0650265
서울대길초등학교,서울특별시 영등포구 대방천로 206,37.49823145,126.913035
서울대도초등학교,서울특별시 강남구 선릉로 209,37.49258577,127.0532066
서울대동초등학교,서울특별시 영등포구 대림로21길 6,37.49370937,126.9004506
서울대림초등학교,서울특별시 동작구 대방동1길 22,37.50061967,126.9248781
서울대명초등학교,서울특별시 강동구 상암로 271,37.54770706,127.1528496
서울대모초등학교,서울특별시 강남구 광평로20길 27,37.48059845,127.0859938
서울대방초등학교,서울특별시 영등포구 여의대방로35길 14,37.50290012,126.9190202
서울대신초등학교,서울특별시 서대문구 이화여대2길 27,37.55794755,126.9480572
서울대영초등학교,서울특별시 영등포구 신길로23길 43,37.5026542,126.9065244
서울대왕초등학교,서울특별시 강남구 헌릉로618길 8,37.46463918,127.105304
서울대은초등학교,서울특별시 은평구 통일로69길 12-15,37.61236712,126.9258698
서울대조초등학교,서울특별시 은평구 연서로18길 17,37.61357914,126.9193022
서울대진초등학교,서울특별시 강남구 개포로109길 74,37.49702757,127.0778614
서울대청초등학교,서울특별시 강남구 양재대로55길 28,37.4931481,127.0877673
서울대치초등학교,서울특별시 강남구 양재천로 363,37.49128657,127.0619707
서울대학교,서울 관악구 관악로 1 서울대학교,37.4662872666604,126.94815644252
서울대학교사범대학부설고등학교,서울특별시 성북구 월곡로 6,37.59472384,127.0381204
서울대학교사범대학부설여자중학교,서울특별시 종로구 대학로 64,37.5775997,127.0042955
서울대학교사범대학부설중학교,서울특별시 성북구 월곡로 36,37.59582047,127.0391333
서울대현초등학교,서울특별시 강남구 역삼로98길 16,37.50348612,127.0632921
서울덕수초등학교,서울특별시 중구 덕수궁길 140,37.56908888,126.9746579
서울덕암초등학교,서울특별시 노원구 덕릉로112길 68,37.66663372,127.0817151
서울덕의초등학교,서울특별시 구로구 고척로 213,37.5060004,126.8573531
서울도곡초등학교,서울특별시 강남구 선릉로64길 33,37.49951141,127.0544655
서울도림초등학교,서울특별시 영등포구 가마산로65길 22,37.50867869,126.9071154
서울도봉초등학교,서울특별시 도봉구 도봉로173길 96,37.67996175,127.0382887
서울도성초등학교,서울특별시 강남구 역삼로 313,37.50146201,127.0488722
서울도솔학교,서울특별시 도봉구 평화로15번길 9-26,37.6948405,127.0424767
서울도시과학기술고등학교,서울특별시 성북구 종암로 196,37.6078128,127.0330442
서울도신초등학교,서울특별시 영등포구 도림로53길 32-9,37.49926789,126.9007141
서울독립문초등학교,서울특별시 종로구 통일로12길 23,37.5740826,126.9601488
서울독산초등학교,서울특별시 금천구 시흥대로104길 31,37.46565619,126.8997129
서울독일학교,서울특별시 용산구 독서당로 123-6,37.53733641,127.0118826
서울돈암초등학교,서울특별시 성북구 동소문로13길 38,37.59372621,127.0130043
서울동교초등학교,서울특별시 마포구 월드컵로25길 86,37.55833769,126.9020783
서울동구로초등학교,서울특별시 구로구 구로중앙로14길 43,37.494448,126.8930163
서울동답초등학교,서울특별시 동대문구 답십리로60길 12,37.57150142,127.0640341
서울동명초등학교,서울특별시 성동구 마장로29길 29,37.56812285,127.0351082
서울동산고등학교,서울특별시 노원구 공릉로 257,37.63077798,127.0739984
서울동신초등학교,서울특별시 성북구 보문사길 50,37.58328787,127.017058
서울동원초등학교,서울특별시 중랑구 송림길 114,37.60466834,127.1042921
서울동의초등학교,서울특별시 광진구 영화사로 111,37.55342244,127.0990473
서울동일초등학교,서울특별시 노원구 한글비석로 566,37.66481783,127.0543222
서울동자초등학교,서울특별시 광진구 뚝섬로 561,37.53505821,127.0721792
서울동작초등학교,서울특별시 동작구 동작대로29길 214,37.49406054,126.9764893
서울동천학교,서울특별시 노원구 노원로18길 41,37.64451236,127.0729257
서울동호초등학교,서울특별시 성동구 매봉길 49-35,37.54629208,127.0098797
서울두산초등학교,서울특별시 금천구 범안로11길 3,37.46754668,126.8909465
서울둔촌초등학교,서울특별시 강동구 양재대로88길 27,37.52621993,127.1374541
서울드와이트외국인학교,서울특별시 마포구 월드컵북로62길 21,37.58414481,126.885285
서울등마초등학교,서울특별시 강서구 등촌로35길 12,37.54204371,126.8616672
서울등명초등학교,서울특별시 강서구 강서로56나길 34,37.56089445,126.8423822
서울등서초등학교,서울특별시 강서구 화곡로58길 86,37.55188439,126.8550381
서울등양초등학교,서울특별시 강서구 강서로56나길 140,37.56494704,126.8447602
서울등원초등학교,서울특별시 강서구 화곡로65길 90,37.55981354,126.850069
서울등촌초등학교,서울특별시 강서구 등촌로39길 71,37.54761422,126.8579422
서울등현초등학교,서울특별시 강서구 화곡로65길 124,37.56145118,126.8475984
서울디지털대학교,서울 마포구 도화동 560번지,37.5429684534294,126.947855469473
서울디지텍고등학교,서울특별시 용산구 회나무로12길 27,37.53896942,126.9906177
서울로봇고등학교,서울특별시 강남구 광평로20길 63,37.48074142,127.0841549
서울마천초등학교,서울특별시 송파구 마천로61다길 24,37.49543751,127.1527046
서울마포초등학교,서울특별시 마포구 도화2길 64,37.53863763,126.9499738
서울망우초등학교,서울특별시 중랑구 망우로72길 49,37.59873698,127.1038418
서울망원초등학교,서울특별시 마포구 방울내로5길 28,37.56104394,126.9011172
서울매동초등학교,서울특별시 종로구 사직로9길 19,37.57753914,126.966717
서울매봉초등학교,서울특별시 구로구 고척로21길 55,37.5049422,126.8443831
서울매헌초등학교,서울특별시 서초구 언남길 8,37.47126248,127.0420579
서울맹학교,서울특별시 종로구 필운대로 97,37.58477269,126.9677618
서울면남초등학교,서울특별시 중랑구 면목로30나길 38,37.57725972,127.0876664
서울면동초등학교,서울특별시 중랑구 면목로57길 32,37.58524071,127.0859611
서울면목초등학교,서울특별시 중랑구 면목로 434,37.5906966,127.0872878
서울면북초등학교,서울특별시 중랑구 용마공원로5길 32,37.59441816,127.1035478
서울면일초등학교,서울특별시 중랑구 용마산로100길 13,37.5920416,127.0997947
서울면중초등학교,서울특별시 중랑구 용마산로70길 43,37.58244179,127.0965509
서울명덕초등학교,서울특별시 강동구 양재대로156길 11,37.55676233,127.1450815
서울명신초등학교,서울특별시 종로구 낙산길 250,37.58136063,127.0137245
서울명원초등학교,서울특별시 강동구 명일로 364,37.55128785,127.1505002
서울명일초등학교,서울특별시 강동구 고덕로38길 8,37.5545536,127.1425911
서울목동초등학교,서울특별시 양천구 목동동로12길 12,37.52280877,126.8721195
서울목원초등학교,서울특별시 양천구 목동중앙로 204,37.54293497,126.8824459
서울묘곡초등학교,서울특별시 강동구 동남로79길 46,37.55871279,127.1530934
서울무학초등학교,서울특별시 성동구 무학봉15길 21,37.56327474,127.0296437
서울묵동초등학교,서울특별시 중랑구 동일로138길 27,37.60335949,127.0808272
서울묵현초등학교,서울특별시 중랑구 동일로157길 75,37.60904476,127.0739287
서울문교초등학교,서울특별시 금천구 독산로54길 102,37.46676964,126.9089299
서울문덕초등학교,서울특별시 송파구 송이로34길 60,37.48505216,127.1279627
서울문래초등학교,서울특별시 영등포구 문래로 104,37.51914038,126.8936057
서울문백초등학교,서울특별시 금천구 시흥대로47길 43-1,37.44711987,126.8986887
서울문성초등학교,서울특별시 금천구 시흥대로 460,37.47488188,126.8994713
서울문영여자중학교,서울특별시 관악구 관악로 85,37.47290457,126.9509181
서울문정초등학교,서울특별시 송파구 문정로5길 20,37.48907741,127.1292062
서울문창초등학교,서울특별시 동작구 신대방2길 14,37.48894829,126.914528
서울문현초등학교,서울특별시 송파구 충민로 137,37.48279092,127.1302571
서울문화고등학교,서울특별시 도봉구 마들로 598,37.66413143,127.0472858
서울미동초등학교,서울특별시 서대문구 충정로 52,37.56335057,126.9658861
서울미래초등학교,서울특별시 구로구 새말로 73,37.50510665,126.8880803
서울미성초등학교,서울특별시 관악구 문성로 79,37.47833997,126.9123923
서울미술고등학교,서울특별시 관악구 남부순환로247길 26,37.47669631,126.9667485
서울미아초등학교,서울특별시 성북구 삼양로 77,37.61058761,127.0216444
서울미양초등학교,서울특별시 강북구 솔샘로 195,37.62153242,127.0141334
서울반도체고등학교,서울특별시 동대문구 겸재로 21,37.58515301,127.0694509
서울반원초등학교,서울특별시 서초구 잠원로3길 28,37.51038722,127.0042361
서울반포초등학교,서울특별시 서초구 신반포로 55-4,37.50248483,126.9917416
서울발산초등학교,서울특별시 강서구 강서로45길 113,37.55026244,126.8309944
서울방배초등학교,서울특별시 서초구 방배중앙로13길 26,37.4867641,126.987138
서울방산초등학교,서울특별시 송파구 오금로27길 42,37.50953792,127.1211907
서울방송고등학교,서울특별시 성동구 동호로5길 131,37.54777448,127.0110373
서울방이초등학교,서울특별시 송파구 위례성대로10길 4,37.51351229,127.1205311
서울방일초등학교,서울특별시 서초구 방배로18길 52,37.4852056,126.998849
서울방학초등학교,서울특별시 도봉구 도당로9길 34,37.66393373,127.032748
서울방현초등학교,서울특별시 서초구 효령로4길 58,37.47650298,126.9900734
서울방화초등학교,서울특별시 강서구 양천로6길 92,37.56870409,126.8074982
서울배봉초등학교,서울특별시 동대문구 사가정로 193,37.58008416,127.0668719
서울백산초등학교,서울특별시 금천구 시흥대로38길 78,37.44676728,126.9050646
서울백석초등학교,서울특별시 강서구 공항대로 491,37.55364765,126.8624258
서울백운초등학교,서울특별시 도봉구 삼양로146길 17,37.65264151,127.0136725
서울버들초등학교,서울특별시 송파구 석촌호수로 81,37.5102185,127.0892746
서울번동초등학교,서울특별시 강북구 오현로 204,37.62902386,127.0400394
서울보광초등학교,서울특별시 용산구 우사단로 20,37.53254047,126.9963911
서울보라매초등학교,서울특별시 동작구 여의대방로16길 30,37.49585189,126.9161445
서울본동초등학교,서울특별시 동작구 노량진로26길 16-40,37.51065681,126.9539239
서울봉래초등학교,서울특별시 중구 손기정로 73,37.55641234,126.9652506
서울봉은초등학교,서울특별시 강남구 학동로 610,37.52004783,127.0607467
서울봉천초등학교,서울특별시 관악구 행운1라길 17,37.48327321,126.9582092
서울봉현초등학교,서울특별시 관악구 성현로 117,37.49120221,126.9553472
서울봉화초등학교,서울특별시 중랑구 신내로15길 110,37.61357623,127.0924085
서울북가좌초등학교,서울특별시 서대문구 거북골로19길 20,37.57722021,126.9077782
서울북성초등학교,서울특별시 서대문구 북아현로1나길 22,37.55963212,126.9518349
서울북한산초등학교,서울특별시 은평구 대서문길 42-3,37.65363208,126.9504624
서울불광초등학교,서울특별시 은평구 불광로 51,37.61342945,126.9307187
서울불암초등학교,서울특별시 노원구 중계로 178,37.65115064,127.080651
서울사근초등학교,서울특별시 성동구 사근동11길 16,37.56267971,127.0475738
서울사당초등학교,서울특별시 관악구 남현4길 51,37.47381962,126.973367
서울사이버대학교,서울 강북구 솔매로49길 60(미아동 193-15) 서울사이버대학교,37.629843917766,127.027123065417
서울삼광초등학교,서울특별시 용산구 두텁바위로1나길 19,37.54775231,126.9765943
서울삼릉초등학교,서울특별시 강남구 봉은사로63길 22,37.5132583,127.0471723
서울삼선초등학교,서울특별시 성북구 보문로29길 106,37.58714152,127.0126718
서울삼성초등학교,서울특별시 관악구 대학7길 52,37.46852204,126.9404929
서울삼성학교,서울특별시 동작구 양녕로30길 19-4,37.49919802,126.9466724
서울삼양초등학교,서울특별시 강북구 삼양로49길 17,37.62329558,127.0161491
서울삼육초등학교,서울특별시 동대문구 회기로10길 63,37.58969413,127.0482485
서울삼일초등학교,서울특별시 동작구 사당로23나길 27,37.48825931,126.9751885
서울삼전초등학교,서울특별시 송파구 백제고분로28길 19,37.50170128,127.0932681
서울삼정초등학교,서울특별시 강서구 금낭화로 222,37.58050843,126.8104937
서울상경초등학교,서울특별시 노원구 수락산로 237,37.67045947,127.0517738
서울상계초등학교,서울특별시 노원구 상계로9길 39,37.65884385,127.0663364
서울상곡초등학교,서울특별시 노원구 노원로38길 34,37.6628823,127.0622342
서울상도초등학교,서울특별시 동작구 성대로21길 62,37.50037603,126.9373788
서울상봉초등학교,서울특별시 중랑구 동일로126가길 11,37.59797895,127.0831714
서울상수초등학교,서울특별시 노원구 동일로216길 66,37.6510889,127.0645868
서울상신초등학교,서울특별시 은평구 가좌로 361,37.59755372,126.9046049
서울상암초등학교,서울특별시 마포구 월드컵북로 353,37.57630958,126.89196
서울상원초등학교,서울특별시 노원구 한글비석로54길 119,37.66766551,127.0596307
서울상월초등학교,서울특별시 노원구 동일로221길 27,37.65868395,127.0573693
서울상일초등학교,서울특별시 강동구 천호대로 1477,37.54757217,127.1726635
서울상지초등학교,서울특별시 마포구 월드컵로42길 30,37.57975102,126.8820736
서울상천초등학교,서울특별시 노원구 덕릉로 443,37.64610601,127.057448
서울상현초등학교,서울특별시 동작구 상도로58길 21,37.49487439,126.9526691
서울새롬학교,서울특별시 관악구 보라매로 44,37.49316847,126.9273716
서울새솔초등학교,서울특별시 중랑구 신내역로1길 164,37.6179524,127.1113284
서울서강초등학교,서울특별시 마포구 독막로 113,37.54810508,126.9274309
서울서교초등학교,서울특별시 마포구 와우산로23길 20-27,37.55488173,126.9243824
서울서래초등학교,서울특별시 서초구 방배로 260,37.496404,126.9901565
서울서빙고초등학교,서울특별시 용산구 서빙고로51길 14,37.52206892,126.9923004
서울서신초등학교,서울특별시 은평구 은평터널로 150,37.59229405,126.9073823
서울서원초등학교,서울특별시 서초구 고무래로 63,37.5024389,127.0146195
서울서이초등학교,서울특별시 서초구 서운로 35,37.49156467,127.025618
서울서일초등학교,서울특별시 서초구 남부순환로339길 38,37.48529778,127.0221598
서울서정초등학교,서울특별시 양천구 목동로8길 19,37.52345012,126.8672362
서울서진학교,서울특별시 강서구 양천로55길 22,37.56547682,126.8506223
서울서초초등학교,서울특별시 서초구 서운로 178,37.49904877,127.0248915
서울석계초등학교,서울특별시 성북구 한천로58길 273,37.60881368,127.0697321
서울석관초등학교,서울특별시 성북구 돌곶이로22길 21,37.61102206,127.0583553
서울석촌초등학교,서울특별시 송파구 가락로11길 26,37.50265278,127.1052385
서울선곡초등학교,서울특별시 노원구 광운로2길 1,37.61860202,127.0577303
서울선린초등학교,서울특별시 강동구 진황도로61길 29,37.52976012,127.145594
서울선사초등학교,서울특별시 강동구 올림픽로 837,37.55584691,127.128196
서울선유초등학교,서울특별시 영등포구 선유로43가길 14,37.53287919,126.8927768
서울성내초등학교,서울특별시 강동구 성내로3길 19,37.53135786,127.1225001
서울성북초등학교,서울특별시 성북구 성북로 102-10,37.59405389,126.9987754
서울성산초등학교,서울특별시 마포구 양화로3길 94,37.55344533,126.9106697
서울성서초등학교,서울특별시 마포구 성미산로7길 24,37.56101504,126.910759
서울성수초등학교,서울특별시 성동구 아차산로17길 21,37.54433788,127.0628861
서울성원초등학교,서울특별시 마포구 월드컵로36길 34,37.56693244,126.9050136
서울성일초등학교,서울특별시 강동구 성내로15길 33,37.52970924,127.1284083
서울성자초등학교,서울특별시 광진구 뚝섬로56길 7,37.53149357,127.0834083
서울세검정초등학교,서울특별시 종로구 세검정로9길 1,37.6034986,126.9610731
서울세곡초등학교,서울특별시 구로구 고척로33길 34,37.50506044,126.8491266
서울세륜초등학교,서울특별시 송파구 양재대로 1264,37.51857484,127.1341577
서울세명초등학교,서울특별시 강남구 자곡로 55,37.4688571,127.0910759
서울세종고등학교,서울특별시 강남구 광평로51길 36,37.49038935,127.1027968
서울소의초등학교,서울특별시 마포구 마포대로24길 42,37.55278186,126.9606556
서울송례초등학교,서울특별시 송파구 위례순환로 439,37.47789403,127.1384959
서울송원초등학교,서울특별시 성동구 동일로43길 9,37.55415927,127.0695262
서울송전초등학교,서울특별시 송파구 석촌호수로 159,37.50883126,127.0951214
서울송정초등학교,서울특별시 강서구 공항대로3길 18,37.56223089,126.8102813
서울송중초등학교,서울특별시 강북구 오현로 9,37.61746908,127.0319965
서울송천초등학교,서울특별시 강북구 삼양로20길 29,37.6149052,127.0237354
서울송파초등학교,서울특별시 송파구 백제고분로 400,37.50695497,127.1112472
서울송화초등학교,서울특별시 강서구 방화대로34길 2,37.56815047,126.8180329
서울수락초등학교,서울특별시 노원구 동일로 1745,37.68450608,127.0551873
서울수리초등학교,서울특별시 은평구 불광로14길 10-10,37.62030737,126.9341109
서울수명초등학교,서울특별시 강서구 수명로1길 84,37.55277267,126.8238794
서울수색초등학교,서울특별시 은평구 수색로16길 21,37.58517215,126.8960121
서울수서초등학교,서울특별시 강남구 광평로51길 46,37.49113737,127.1018578
서울수송초등학교,서울특별시 강북구 한천로124길 14,37.63731441,127.0329178
서울수암초등학교,서울특별시 노원구 중계로12길 9,37.6476849,127.0814656
서울수유초등학교,서울특별시 강북구 삼양로74길 39,37.63124966,127.0202924
서울숭곡초등학교,서울특별시 성북구 종암로40길 30,37.60843284,127.0328151
서울숭덕초등학교,서울특별시 성북구 정릉로 279,37.60382548,127.0132924
서울숭례초등학교,서울특별시 성북구 종암로5길 14,37.59452119,127.0352972
서울숭미초등학교,서울특별시 도봉구 노해로 179,37.65102344,127.0279443
서울숭신초등학교,서울특별시 성동구 마장로 161,37.56768831,127.0280051
서울숭인초등학교,서울특별시 성북구 오패산로16길 37,37.60909779,127.0381465
서울시립대학교,서울 동대문구 서울시립대로 163 (전농동 90번지) ,37.5825775765293,127.059988126984
서울시흥초등학교,서울특별시 금천구 독산로23길 26,37.4553482,126.9046492
서울신가초등학교,서울특별시 송파구 송이로 75,37.50032072,127.1197004
서울신강초등학교,서울특별시 양천구 중앙로55길 72,37.52584419,126.8422639
서울신계초등학교,서울특별시 노원구 초안산로 29,37.62998908,127.052872
서울신곡초등학교,서울특별시 강서구 등촌로13자길 42-14,37.53909546,126.8560096
서울신구로초등학교,서울특별시 구로구 가마산로27길 69,37.49942087,126.8888574
서울신구초등학교,서울특별시 강남구 압구정로18길 28,37.52336057,127.0239924
서울신기초등학교,서울특별시 양천구 신정로 292,37.51131231,126.854213
서울신길초등학교,서울특별시 동작구 알마타길 16,37.51036652,126.9268086
서울신남성초등학교,서울특별시 동작구 사당로 146,37.48870471,126.9646797
서울신남초등학교,서울특별시 양천구 남부순환로83길,37.51645783,126.8431522
서울신내초등학교,서울특별시 중랑구 용마산로125나길 22,37.60493422,127.1001285
서울신답초등학교,서울특별시 동대문구 천호대로 177,37.57270461,127.0429617
서울신당초등학교,서울특별시 중구 난계로 141,37.56362621,127.0236731
서울신대림초등학교,서울특별시 영등포구 대림로8길 25,37.49214874,126.9060777
서울신도림초등학교,서울특별시 구로구 신도림로19길 44,37.51199636,126.8831507
서울신도초등학교,서울특별시 은평구 진관1로 77-23,37.63293843,126.9291989
서울신동초등학교,서울특별시 서초구 나루터로 15,37.51713004,127.0113904
서울신림초등학교,서울특별시 관악구 문성로28길 31,37.47711985,126.9268767
서울신명초등학교,서울특별시 강동구 명일로24길 33,37.54092685,127.1499791
서울신목초등학교,서울특별시 양천구 신목로5길 11-6,37.51661098,126.8726408
서울신묵초등학교,서울특별시 중랑구 동일로149길 46,37.60652285,127.0758358
서울신미림초등학교,서울특별시 구로구 신도림로 26,37.5071588,126.8795842
서울신방학초등학교,서울특별시 도봉구 시루봉로 173,37.66668425,127.0289181
서울신봉초등학교,서울특별시 관악구 양녕로6나길 1,37.48557795,126.9491309
서울신북초등학교,서울특별시 마포구 월드컵북로38길 26,37.57154596,126.904869
서울신사초등학교,서울특별시 은평구 가좌로 275-2,37.59283483,126.9119832
서울신상계초등학교,서울특별시 노원구 상계로 267,37.66751836,127.075828
서울신상도초등학교,서울특별시 동작구 장승배기로 14,37.50082463,126.9438177
서울신서초등학교,서울특별시 양천구 목동서로10길 35,37.52053525,126.862325
서울신석초등학교,서울특별시 마포구 대흥로 33,37.54453573,126.9377795
서울신성초등학교,서울특별시 관악구 신림로 114,37.47200331,126.9367542
서울신암초등학교,서울특별시 강동구 올림픽로93길 33-16,37.55002367,127.1244044
서울신양초등학교,서울특별시 광진구 능동로 42,37.53468209,127.0699953
서울신영초등학교,서울특별시 영등포구 도신로4길 32,37.50100602,126.8960948
서울신용산초등학교,서울특별시 용산구 이촌로 255,37.52062959,126.9753663
서울신우초등학교,서울특별시 관악구 호암로 498,37.46327253,126.9325352
서울신원초등학교,서울특별시 양천구 남부순환로58길 32,37.52951558,126.8298656
서울신월초등학교,서울특별시 강서구 강서로31길 48,37.54036551,126.8394555
서울신은초등학교,서울특별시 양천구 신정이펜2로 30,37.51391281,126.8321696
서울신자초등학교,서울특별시 광진구 뚝섬로46길 64,37.53024545,127.0755876
서울신정초등학교,서울특별시 강서구 곰달래로31가길 27,37.53207171,126.8523579
서울신중초등학교,서울특별시 서초구 남부순환로317길 15,37.48015788,127.0093433
서울신창초등학교,서울특별시 도봉구 덕릉로60길 93,37.63653953,127.0420843
서울신천초등학교,서울특별시 송파구 올림픽로 215,37.51400777,127.0950365
서울신학초등학교,서울특별시 도봉구 방학로 247-21,37.66122045,127.0257213
서울신현초등학교,서울특별시 중랑구 봉화산로 188,37.60581459,127.0935218
서울신화초등학교,서울특별시 도봉구 우이천로 120,37.63319504,127.0408842
서울신흥초등학교,서울특별시 금천구 독산로36나길 21,37.45928427,126.9093492
서울실용음악고등학교,서울특별시 중구 퇴계로88가길 8,37.56334459,127.0206313
서울쌍문초등학교,서울특별시 도봉구 우이천로 360,37.64836383,127.0242911
서울아이티고등학교,서울특별시 노원구 섬밭로 299,37.64241844,127.0624493
서울아주초등학교,서울특별시 송파구 올림픽로4길 59,37.5057897,127.0753173
서울아현초등학교,서울특별시 마포구 굴레방로 6,37.55581599,126.9565961
서울안산초등학교,서울특별시 서대문구 통일로 321,37.57916901,126.9522097
서울안암초등학교,서울특별시 성북구 고려대로7가길 39,37.5871587,127.0220989
서울안천초등학교,서울특별시 금천구 한내로 69-16,37.45875781,126.8883914
서울안평초등학교,서울특별시 동대문구 장한로14길 61,37.56596821,127.0720334
서울압구정초등학교,서울특별시 강남구 압구정로39길 29,37.53173911,127.0308417
서울애화학교,서울특별시 강북구 솔매로52길 31,37.62524951,127.0290573
서울양강초등학교,서울특별시 양천구 오목로 101,37.52411035,126.8473753
서울양남초등학교,서울특별시 광진구 뚝섬로64길 71,37.53112324,127.0892343
서울양동초등학교,서울특별시 양천구 오목로23길 24,37.52584826,126.8512402
서울양명초등학교,서울특별시 양천구 중앙로 204,37.51637495,126.8566349
서울양목초등학교,서울특별시 양천구 목동로11길 30,37.52387928,126.8616692
서울양원숲초등학교,서울특별시 중랑구 양원역로 95,37.60904974,127.1054337
서울양원초등학교,서울특별시 양천구 화곡로 16,37.53821733,126.8231052
서울양재초등학교,서울특별시 서초구 바우뫼로18길 14,37.47416538,127.0318925
서울양전초등학교,서울특별시 강남구 개포로 513,37.49024785,127.0691709
서울양천초등학교,서울특별시 강서구 양천로 329,37.57018817,126.8395397
서울양화초등학교,서울특별시 양천구 목동중앙북로16길 57,37.5436693,126.873986
서울어울초등학교,서울특별시 은평구 통일로 650,37.60656331,126.9350586
서울언남초등학교,서울특별시 서초구 헌릉로8길 42,37.45411333,127.0614366
서울언북초등학교,서울특별시 강남구 삼성로135길 42,37.52012517,127.0447158
서울언주초등학교,서울특별시 강남구 남부순환로363길 19,37.486322,127.036793
서울여의도초등학교,서울특별시 영등포구 여의대방로 439,37.52320482,126.9367944
서울여자간호대학교,서울 서대문구 홍제3동 서울여자간호대학,37.597029954835,126.956476606594
서울여자대학교,서울특별시 노원구 화랑로 621 서울여자대학교,37.6273815936787,127.091621159803
서울여자중학교,서울특별시 마포구 백범로25길 34,37.54780003,126.9490253
서울역삼초등학교,서울특별시 강남구 강남대로66길 21,37.49314441,127.0325649
서울역촌초등학교,서울특별시 은평구 은평로3길 25,37.60158417,126.913928
서울연가초등학교,서울특별시 서대문구 증가로12가길 49-50,37.5795632,126.9173292
서울연광초등학교,서울특별시 은평구 연서로35길 37,37.62364876,126.923909
서울연신초등학교,서울특별시 은평구 연서로 347,37.62605996,126.9277513
서울연은초등학교,서울특별시 은평구 백련산로2길 35,37.59051222,126.9251126
서울연지초등학교,서울특별시 노원구 월계로55길 48,37.6331962,127.05955
서울연천초등학교,서울특별시 은평구 연서로34길 22,37.62134929,126.9299179
서울연촌초등학교,서울특별시 노원구 공릉로58길 36,37.63442392,127.0725229
서울연희초등학교,서울특별시 서대문구 연희로 136,37.56904593,126.9341423
서울염경초등학교,서울특별시 강서구 양천로69길 49,37.55500067,126.8712046
서울염동초등학교,서울특별시 강서구 양천로73길 17,37.55209548,126.8723509
서울염리초등학교,서울특별시 마포구 토정로37길 37,37.54257093,126.9462476
서울염창초등학교,서울특별시 강서구 양천로 646-28,37.55322614,126.8676002
서울영남초등학교,서울특별시 금천구 문성로 62-15,37.4758807,126.9099228
서울영도초등학교,서울특별시 양천구 목동중앙로 70,37.53594995,126.8719426
서울영동초등학교,서울특별시 영등포구 국회대로53길 20,37.52700691,126.9077034
서울영등포초등학교,서울특별시 영등포구 경인로 756,37.51294802,126.89826
서울영림초등학교,서울특별시 영등포구 시흥대로173길 14,37.48734601,126.9025161
서울영문초등학교,서울특별시 영등포구 문래로 56,37.51980741,126.8875891
서울영본초등학교,서울특별시 동작구 만양로12가길 69,37.51130651,126.9486405
서울영상고등학교,서울특별시 양천구 목동로11길 46,37.52330444,126.8602935
서울영서초등학교,서울특별시 구로구 도림로20길 57,37.48796309,126.8950274
서울영신초등학교,서울특별시 영등포구 도신로60길 23,37.51017196,126.9181221
서울영원초등학교,서울특별시 영등포구 도영로 22길 31,37.51071936,126.9021825
서울영일초등학교,서울특별시 구로구 남부순환로105길 218,37.48561007,126.8839113
서울영중초등학교,서울특별시 영등포구 양산로 185,37.5241433,126.9036957
서울영풍초등학교,서울특별시 송파구 오금로57길 15,37.49618624,127.1432147
서울영화초등학교,서울특별시 동작구 등용로8길 3,37.50893695,126.932816
서울영희초등학교,서울특별시 강남구 일원로 21,37.4923004,127.0811328
서울예술고등학교,서울특별시 종로구 평창문화로 70,37.60575682,126.9678907
서울오금초등학교,서울특별시 송파구 위례성대로22길 11,37.50937049,127.1319779
서울오류남초등학교,서울특별시 구로구 서해안로24길 22,37.48971668,126.8390985
서울오류초등학교,서울특별시 구로구 경인로19길 39,37.49753706,126.8420377
서울오륜초등학교,서울특별시 송파구 양재대로 1196,37.51242748,127.1343968
서울오봉초등학교,서울특별시 도봉구 시루봉로 285,37.67171849,127.040259
서울오정초등학교,서울특별시 구로구 경인로2길 10,37.49013725,126.8264177
서울오현초등학교,서울특별시 강북구 월계로 221,37.62320284,127.0462259
서울옥수초등학교,서울특별시 성동구 금호로1길 25,37.54552939,127.0218696
서울옥정초등학교,서울특별시 성동구 한림말길 43,37.54230974,127.0157855
서울온곡초등학교,서울특별시 노원구 한글비석로52길 59,37.66732953,127.0655974
서울온수초등학교,서울특별시 구로구 부일로 893,37.49351062,126.8266616
서울왕북초등학교,서울특별시 강남구 광평로31길 74,37.48626102,127.0862372
서울외국어고등학교,서울특별시 도봉구 덕릉로66길 22,37.64578079,127.0515087
서울외국인학교,서울특별시 서대문구 연희로22길 39,37.57014382,126.9363287
서울용강초등학교,서울특별시 마포구 백범로17길 9,37.54911243,126.9440585
서울용곡초등학교,서울특별시 광진구 용마산로22길 82,37.56710862,127.088453
서울용답초등학교,서울특별시 성동구 용답25길 1,37.56072712,127.0537608
서울용동초등학교,서울특별시 노원구 한글비석로1길 81-11,37.64105757,127.0691148
서울용두초등학교,서울특별시 동대문구 천호대로13길 43,37.57640498,127.028382
서울용마초등학교,서울특별시 광진구 천호대로113길 10,37.55782735,127.0835274
서울용산국제학교,서울특별시 용산구 이태원로 285,37.54102641,127.0011366
서울용산초등학교,서울 용산구 한강대로57길 33,37.53561344,126.9725506
서울용암초등학교,서울특별시 용산구 녹사평대로60길 39,37.5453029,126.9894348
서울용원초등학교,서울특별시 노원구 섬밭로 144,37.62993015,127.0689367
서울우면초등학교,서울특별시 서초구 태봉로,37.46536556,127.0260546
서울우솔초등학교,서울특별시 서초구 양재대로2길 74,37.45709422,127.0192756
서울우신초등학교,서울특별시 영등포구 신길로 190,37.50986472,126.9118637
서울우암초등학교,서울특별시 서초구 바우뫼로7길 38,37.47229555,127.0237234
서울우이초등학교,서울특별시 강북구 삼양로99길 36,37.63860583,127.0142405
서울우장초등학교,서울특별시 강서구 화곡로 263,37.54963819,126.8459842
서울원광초등학교,서울특별시 노원구 덕릉로76길 18,37.65429085,127.0753043
서울원당초등학교,서울특별시 관악구 봉천로 505,37.48130479,126.9557666
서울원명초등학교,서울특별시 서초구 고무래로 90-6,37.5007499,127.017067
서울원묵초등학교,서울특별시 중랑구 숙선옹주로 109,37.61774881,127.0868142
서울원신초등학교,서울특별시 관악구 광신길 177,37.46720755,126.9272752
서울원촌초등학교,서울특별시 서초구 사평대로45길 26,37.50624464,127.0123467
서울원효초등학교,서울특별시 용산구 효창원로13길 38,37.53616126,126.9515453
서울월계초등학교,서울특별시 노원구 월계로45가길 10,37.62795058,127.0508695
서울월곡초등학교,서울특별시 성북구 장월로3길 42,37.61002442,127.046081
서울월정초등학교,서울특별시 강서구 월정로 176,37.53499419,126.8362936
서울월천초등학교,서울특별시 도봉구 노해로70길 96,37.64791373,127.0514258
서울월촌초등학교,서울특별시 양천구 목동중앙로 132,37.54069543,126.876258
서울웹툰애니메이션고등학교,서울특별시 서초구 과천대로 852-23,37.46949097,126.9882459
서울위례별초등학교,서울특별시 송파구 위례광장로 243,37.47904976,127.1450188
서울위례솔초등학교,서울특별시 송파구 위례북로2길 12,37.48673404,127.1507539
서울위례초등학교,서울특별시 강동구 명일로 23,37.52231852,127.1394366
서울유현초등학교,서울특별시 강북구 인수봉로37길 24,37.63228645,127.0113271
서울윤중초등학교,서울특별시 영등포구 여의나루로2길 14,37.51964164,126.9225908
서울율현초등학교,서울특별시 강남구 밤고개로21길 15,37.4745587,127.108265
서울은로초등학교,서울특별시 동작구 서달로 115,37.50339298,126.9597784
서울은명초등학교,서울특별시 은평구 은평로4길 21-9,37.59767912,126.9182757
서울은빛초등학교,서울특별시 은평구 진관3로 73-17,37.64268286,126.9187305
서울은정초등학교,서울특별시 양천구 목동남로 85,37.51114164,126.8671804
서울은진초등학교,서울특별시 은평구 진관1로 21-20,37.63304404,126.920996
서울은천초등학교,서울특별시 관악구 은천로 69,37.4865852,126.9426791
서울은평초등학교,서울특별시 은평구 은평로 239,37.60230404,126.9340336
서울을지초등학교,서울특별시 노원구 중계로 239,37.65058742,127.0733504
서울응봉초등학교,서울특별시 성동구 독서당로62길 28,37.55025339,127.0338297
서울응암초등학교,서울특별시 은평구 가좌로6길 20,37.58875319,126.9216161
서울의료보건고등학교,서울특별시 중구 만리재로37길 30,37.55730142,126.9667204
서울이문초등학교,서울특별시 동대문구 신이문로 16,37.60189649,127.064885
서울이수초등학교,서울특별시 서초구 방배천로4길 23,37.47818874,126.9840588
서울이태원초등학교,서울특별시 용산구 녹사평대로40길 19,37.53647771,126.9876727
서울인공지능고등학교,서울특별시 송파구 양산로 21,37.49164824,127.1420854
서울인수초등학교,서울특별시 강북구 인수봉로 269,37.64305053,127.0091358
서울인왕초등학교,서울특별시 서대문구 세무서길 33-9,37.59021988,126.9448045
서울인헌초등학교,서울특별시 관악구 낙성대로 23,37.47677535,126.9598758
서울일본인학교,서울특별시 마포구 월드컵북로62길 11,37.58381151,126.884431
서울일신초등학교,서울특별시 성북구 월곡로 74,37.59881357,127.0401781
서울일원초등학교,서울특별시 강남구 영동대로4길 20,37.48981271,127.0761419
서울자곡초등학교,서울특별시 강남구 자곡로 150,37.47204936,127.0994826
서울자양초등학교,서울특별시 광진구 아차산로44길 26,37.53683789,127.0801077
서울자운초등학교,서울특별시 도봉구 마들로13길 166,37.65805568,127.0470176
서울잠동초등학교,서울특별시 송파구 올림픽로35길 122,37.51836408,127.0999979
서울잠신초등학교,서울특별시 송파구 잠실로 32,37.51414815,127.0879435
서울잠실초등학교,서울특별시 송파구 올림픽로35길 20,37.52014104,127.1107998
서울잠원초등학교,서울특별시 서초구 신반포로16길 15-25,37.50185909,126.9983875
서울잠일초등학교,서울특별시 송파구 올림픽로 95,37.51474166,127.0816362
서울잠전초등학교,서울특별시 송파구 올림픽로12길 51,37.50733493,127.0838644
서울잠현초등학교,서울특별시 송파구 올림픽로37길 109,37.52258587,127.1047228
서울장곡초등학교,서울특별시 성북구 장월로23길 16,37.61686002,127.0481512
서울장수초등학교,서울특별시 양천구 신정로13가길 30,37.5129972,126.8451597
서울장안초등학교,서울특별시 광진구 군자로 74,37.54987645,127.0724025
서울장월초등학교,서울특별시 성북구 한천로101길 66,37.62192922,127.0473205
서울장위초등학교,서울특별시 성북구 장월로8가길 41,37.61144251,127.0500064
서울장충초등학교,서울특별시 중구 청구로17길 40,37.55997122,127.0117048
서울장평초등학교,서울특별시 동대문구 답십리로,37.57287069,127.0589583
서울재동초등학교,서울특별시 종로구 북촌로4길 7,37.57994157,126.9855017
서울전곡초등학교,서울특별시 동대문구 전농로 172,37.58070429,127.0560124
서울전농초등학교,서울특별시 동대문구 사가정로 66,37.57473031,127.0543331
서울전동초등학교,서울특별시 동대문구 전농로16길 61,37.57908329,127.0608053
서울정곡초등학교,서울특별시 강서구 방화대로50길 22,37.5769597,126.8189328
서울정덕초등학교,서울특별시 성북구 아리랑로 63,37.59823995,127.0134213
서울정릉초등학교,서울특별시 성북구 솔샘로25가길 8,37.61979153,127.0055327
서울정목초등학교,서울특별시 양천구 목동중앙로3길 30-10,37.53652885,126.8700491
서울정문학교,서울특별시 관악구 난향3길 31,37.46171259,126.9169516
서울정민학교,서울특별시 노원구 공릉로58길 24,37.63389599,127.0731666
서울정수초등학교,서울특별시 성북구 정릉로24길 58,37.60377489,127.0077189
서울정심초등학교,서울특별시 금천구 독산로78다길 89,37.47198268,126.9081865
서울정애학교,서울특별시 강남구 봉은사로81길 16,37.51432622,127.0544003
서울정인학교,서울특별시 강북구 인수봉로 119-20,37.63095681,127.0119238
서울정진학교,서울특별시 구로구 부일로9길 158,37.49881449,126.8207519
서울조원초등학교,서울특별시 관악구 조원로 67,37.48412777,126.9095056
서울종암초등학교,서울특별시 동대문구 무학로44길 25,37.58230741,127.0318564
서울중계초등학교,서울특별시 노원구 한글비석로19길 39,37.65786223,127.0733483
서울중곡초등학교,서울특별시 중랑구 면목로23길 20,37.57489173,127.083439
서울중광초등학교,서울특별시 광진구 긴고랑로13길 59,37.56517298,127.0825123
서울중대초등학교,서울특별시 송파구 송파대로36길 8,37.4998119,127.1136055
서울중동초등학교,서울특별시 마포구 월드컵북로 152,37.56644584,126.9117804
서울중랑초등학교,서울특별시 중랑구 봉우재로6길 26,37.58966246,127.0755037
서울중마초등학교,서울특별시 광진구 동일로72길 43,37.56611507,127.0800237
서울중목초등학교,서울특별시 중랑구 동일로 665,37.59003683,127.0792007
서울중원초등학교,서울특별시 노원구 섬밭로 316,37.64396628,127.063052
서울중평초등학교,서울특별시 노원구 섬밭로 241,37.63725088,127.0637316
서울중현초등학교,서울특별시 노원구 섬밭로 181,37.63225517,127.0660566
서울중화초등학교,서울특별시 중랑구 신내로7가길 22,37.60292163,127.094065
서울중흥초등학교,서울특별시 중랑구 봉화산로 82,37.60140972,127.0838491
서울증산초등학교,서울특별시 은평구 증산서길 61,37.58256527,126.9042764
서울지향초등학교,서울특별시 양천구 신정로11길 74,37.51283768,126.8370238
서울진관초등학교,서울특별시 은평구 진관4로 78-16,37.64541986,126.9290525
서울창경초등학교,서울특별시 도봉구 도봉로129길 54,37.65660218,127.0346025
서울창도초등학교,서울특별시 도봉구 방학로 32-28,37.66413487,127.048784
서울창동초등학교,서울특별시 도봉구 해등로16길 81,37.65536304,127.0448329
서울창림초등학교,서울특별시 도봉구 덕릉로63길 46,37.64323708,127.0416041
서울창서초등학교,서울특별시 서대문구 연세로5나길 30-3,37.55814305,126.9334809
서울창신초등학교,서울특별시 종로구 지봉로 73,37.57621147,127.0142937
서울창원초등학교,서울특별시 도봉구 해등로 103,37.65264409,127.0399799
서울창일초등학교,서울특별시 도봉구 노해로66길 84,37.64765764,127.0476263
서울천동초등학교,서울특별시 강동구 성안로 200,37.5410159,127.1378287
서울천왕초등학교,서울특별시 구로구 천왕로1길 11,37.48141248,126.8369474
서울천이초등학교,서울특별시 구로구 오류로 30,37.48636795,126.8399921
서울천일초등학교,서울특별시 강동구 구천면로 266,37.54436122,127.1334367
서울천호초등학교,서울특별시 강동구 구천면로 310-11,37.54771897,127.1365923
서울청계초등학교,서울특별시 노원구 공릉로 431,37.64498036,127.0658175
서울청구초등학교,서울특별시 중구 다산로 170,37.55911668,127.0137244
서울청담초등학교,서울특별시 강남구 압구정로71길 9,37.52828187,127.045153
서울청덕초등학교,서울특별시 성북구 정릉로9라길 11,37.61203289,127.0003334
서울청량초등학교,서울특별시 동대문구 회기로25길 31,37.5923094,127.0559085
서울청룡초등학교,서울특별시 관악구 관악로5길 61,37.47672527,126.9512846
서울청운초등학교,서울특별시 종로구 자하문로 105,37.58580573,126.9692947
서울청파초등학교,서울특별시 용산구 효창원로 228,37.5473049,126.9635439
서울체육중학교,서울특별시 송파구 강동대로 232,37.52233038,127.1298226
서울초당초등학교,서울특별시 도봉구 해등로32길 11,37.65862783,127.0219562
서울충무초등학교,서울 중구 퇴계로50길 13,37.56194948,127.0012351
서울치현초등학교,서울특별시 강서구 방화대로47길 43,37.57591915,126.8146456
서울컨벤션고등학교,서울특별시 강동구 동남로 964,37.55928456,127.1582159
서울탑동초등학교,서울특별시 금천구 탑골로 47-3,37.45232267,126.9145254
서울탑산초등학교,서울특별시 강서구 허준로 109,37.56700477,126.852594
서울태랑초등학교,서울특별시 노원구 화랑로51나길 31,37.62625086,127.0909151
서울태릉초등학교,서울특별시 노원구 노원로1길 36,37.62287979,127.084782
서울토성초등학교,서울특별시 송파구 풍성로20길 44,37.53189633,127.1157724
서울평화초등학교,서울특별시 송파구 송파대로26길 22,37.49161834,127.1227005
서울포이초등학교,서울특별시 강남구 개포로22길 87,37.47581662,127.0520457
서울풍납초등학교,서울특별시 송파구 풍성로 43,37.53529406,127.1175324
서울풍성초등학교,서울특별시 송파구 강동대로2길 13,37.52631188,127.1134927
서울프랑스학교,서울특별시 서초구 서래로 7,37.49582982,126.9978408
서울하늘숲초등학교,서울특별시 구로구 오리로 1106,37.48415943,126.841482
서울하늘초등학교,서울특별시 마포구 월드컵북로 502-14,37.58580609,126.8808572
서울학동초등학교,서울특별시 강남구 선릉로115길 42,37.51204595,127.0394356
서울한강초등학교,서울특별시 용산구 한강대로14길 9,37.52522617,126.9650994
서울한남초등학교,서울특별시 용산구 한남대로 112,37.53920365,127.0055998
서울한산초등학교,서울특별시 강동구 풍성로 261,37.52869458,127.1410769
서울한서초등학교,서울특별시 마포구 대흥로24바길 27,37.55364783,126.9497788
서울한천초등학교,서울특별시 노원구 마들로 45,37.62075017,127.0692581
서울항공비즈니스고등학교,서울특별시 강서구 방화대로34길 13,37.56921778,126.8170408
서울항동초등학교,서울특별시 구로구 연동로 178,37.47709214,126.8241895
서울행당초등학교,서울특별시 성동구 고산자로8길 6,37.55701913,127.0348734
서울행림초등학교,서울특별시 동작구 솔밭로 47,37.48281148,126.9649777
서울행현초등학교,서울특별시 성동구 행당로 95,37.55770899,127.029368
서울혜화초등학교,서울특별시 종로구 혜화로 32,37.58917277,126.999928
서울홍릉초등학교,서울특별시 동대문구 회기로 90,37.59068752,127.0477051
서울홍연초등학교,서울특별시 서대문구 백련사길 55,37.58211871,126.9306604
서울홍은초등학교,서울특별시 서대문구 세검정로 105,37.59754027,126.949458
서울홍제초등학교,서울특별시 서대문구 홍은중앙로 13,37.59348091,126.9453365
서울홍파초등학교,서울특별시 동대문구 고산자로 518,37.58612038,127.039415
서울화계초등학교,서울특별시 강북구 솔매로50가길 25,37.62388498,127.0297162
서울화곡초등학교,서울특별시 강서구 초록마을로 28,37.54366962,126.8464717
서울화일초등학교,서울특별시 강서구 까치산로10길 70,37.54071203,126.8474708
서울효정학교,서울특별시 강북구 삼양로63길 33,37.62712954,127.0162222
서울효제초등학교,서울특별시 종로구 대학로 12,37.57271796,127.0035154
서울후암초등학교,서울특별시 용산구 두텁바위로 140,37.55136541,126.9817243
서울휘경초등학교,서울특별시 동대문구 망우로6길 48,37.58567541,127.0579169
서울휘봉초등학교,서울특별시 동대문구 장안벚꽃로 309,37.58567641,127.0700416
서울흑석초등학교,서울특별시 동작구 현충로 87,37.50829705,126.9651492
서울흥인초등학교,서울특별시 중구 청구로6길 11,37.56087001,127.0145555
서일대학교,서울 중랑구 서일대학길 22(면목동 49-3) 서일대학교,37.6065432383919,127.092820287004
서일문화예술고등학교,서울특별시 종로구 지봉로17길 49,37.5793645,127.0127863
서일중학교,서울특별시 서초구 서운로21길 2,37.49852986,127.0232207
서초고등학교,서울특별시 서초구 반포대로27길 29,37.48961169,127.0053782
서초문화예술정보학교,서울특별시 서초구 남부순환로347길 69,37.48806647,127.0299765
서초중학교,서울특별시 서초구 반포대로13길 48,37.48546798,127.0092308
석관고등학교,서울특별시 성북구 한천로70길 30,37.60958929,127.0667176
석관중학교,서울특별시 성북구 한천로 526,37.60814014,127.0667131
석촌중학교,서울특별시 송파구 송이로15길 13,37.50145499,127.1211174
선덕중학교,서울특별시 도봉구 시루봉로 53,37.65627502,127.0267031
선린중학교,서울특별시 용산구 원효로97길 33-4,37.54276984,126.9660387
선사고등학교,서울특별시 강동구 고덕로25길 17,37.55631588,127.1357756
선유고등학교,서울특별시 영등포구 선유로 227,37.53390162,126.8948507
선유중학교,서울특별시 영등포구 선유로 213,37.53328647,126.8943007
선일여자중학교,서울특별시 은평구 갈현로29길 27,37.62030421,126.9119931
선정중학교,서울특별시 은평구 서오릉로20길 19,37.61870451,126.9090316
선화예술중학교,서울특별시 광진구 천호대로 664,37.5509798,127.0870952
성공회대학교,서울 구로구 항동 성공회대학교,37.4801853131196,126.823409784343
성균관대학교,서울 종로구 명륜동3가 성균관대학교,37.5904163009275,126.997842699531
성남중학교,서울특별시 동작구 대방동길 74,37.50528157,126.9266153
성내중학교,서울특별시 강동구 성안로7길 36,37.52906191,127.1291173
성덕여자중학교,서울특별시 강동구 구천면로 396,37.54985454,127.1415413
성동고등학교,서울특별시 중구 퇴계로90길 17,37.5641622,127.0223892
성동공업고등학교,서울특별시 중구 다산로 290,37.56936315,127.0172817
성동글로벌경영고등학교,서울특별시 중구 퇴계로 375,37.56585472,127.0135246
성동초등학교,서울특별시 광진구 자양로4길 63,37.53328137,127.089281
성베드로학교,서울특별시 구로구 연동로 320,37.4875236,126.8261635
성보중학교,서울특별시 관악구 남부순환로156길 39,37.48072837,126.9209573
성사중학교,서울특별시 마포구 모래내로9길 16,37.5680911,126.912683
성산중학교,서울특별시 마포구 성지1길 32-13,37.54731637,126.9165628
성서중학교,서울특별시 마포구 성산로4길 42,37.5627873,126.9079522
성수중학교,서울특별시 성동구 서울숲길 18,37.54734181,127.0382534
성신여자고등학교,서울특별시 성북구 동소문로26가길 80,37.59428963,127.0224072
성신여자대학교,서울 성북구 동선동3가 성신여자대학교,37.5946591280857,127.019888420673
성신여자중학교,서울특별시 성북구 북악산로 918,37.59462268,127.0231286
성심여자중학교,서울특별시 용산구 원효로19길 49,37.53420937,126.9545934
성암여자중학교,서울특별시 강북구 도봉로29길 52,37.62041353,127.0239059
성원중학교,서울특별시 성동구 성덕정9가길 13,37.53945182,127.0513835
성일중학교,서울특별시 동대문구 왕산로23길 55,37.58185023,127.0338504
성재중학교,서울특별시 강서구 허준로 36,37.56950205,126.8454044
세곡중학교,서울특별시 강남구 자곡로 81,37.47196487,127.0925838
세륜중학교,서울특별시 송파구 양재대로72길 41,37.50893314,127.1312464
세명컴퓨터고등학교,서울특별시 은평구 통일로92가길 33,37.62784757,126.9235455
세일중학교,서울특별시 금천구 시흥대로147길 34,37.47459441,126.8953689
세종과학고등학교,서울특별시 구로구 오리로21길 79,37.4975694,126.8273517
세종대학교,서울 광진구 군자동 세종대학교,37.5554765598174,127.075350846159
세종초등학교,서울특별시 광진구 군자로 114,37.5530111,127.0728646
세현고등학교,서울특별시 강서구 허준로 227,37.56043066,126.8636211
세화여자중학교,서울특별시 서초구 신반포로 56-7,37.50199646,126.99423
솔샘중학교,서울특별시 강북구 인수봉로 39,37.62376485,127.0120689
송곡고등학교,서울특별시 중랑구 양원역로 50,37.60584544,127.1064637
송곡여자중학교,서울특별시 중랑구 양원역로 67,37.60668904,127.1051455
송례중학교,서울특별시 송파구 위례순환로 429,37.47783301,127.1397345
송정중학교,서울특별시 강서구 남부순환로 121,37.55315807,126.8152435
송파중학교,서울특별시 송파구 동남로 203,37.49592462,127.1299324
수도사랑의학교,서울특별시 종로구 사직로7길 17,37.57478221,126.9652331
수도여자고등학교부설방송통신고등학교,서울특별시 동작구 여의대방로10길 73,37.49280146,126.9149071
수도전기공업고등학교,서울특별시 강남구 개포로 410,37.48493754,127.0644787
수락고등학교,서울특별시 노원구 동일로245길 143,37.68290777,127.053571
수락중학교,서울특별시 노원구 동일로 1729,37.68314469,127.0548083
수명고등학교,서울특별시 강서구 수명로2길 15,37.54976186,126.8247662
수명중학교,서울특별시 강서구 수명로2길 16,37.54856699,126.8240596
수서중학교,서울특별시 강남구 광평로59길 57,37.49121758,127.1023555
수송중학교,서울특별시 강북구 한천로122길 21,37.63675993,127.0335855
수유중학교,서울특별시 강북구 인수봉로37길 40,37.63128942,127.0103197
숙명여자대학교,서울 용산구 청파로47길 100 숙명여자대학교,37.5454740835781,126.965074376341
숙명여자중학교,서울특별시 강남구 남부순환로 2807,37.49147536,127.0526126
숭곡중학교,서울특별시 성북구 종암로 208,37.60847848,127.0312998
숭문중학교,서울특별시 마포구 숭문길 99,37.55089095,126.9458869
숭실대학교,서울 동작구 상도동 511 숭실대학교,37.4964019323152,126.956588222367
숭실중학교,서울특별시 은평구 은평터널로7길 6,37.59327482,126.9024039
숭의여자대학교,서울특별시 중구 소파로2길 10(예장동),37.5578530747432,126.987481605528
숭의여자중학교,서울특별시 동작구 여의대방로36길 79,37.50736414,126.9292433
숭의초등학교,서울특별시 중구 소파로2길 10,37.55785307,126.9874816
숭인중학교,서울특별시 동대문구 천호대로47길 34,37.57384826,127.0438965
시흥중학교,서울특별시 금천구 시흥대로38길 60,37.44629507,126.9050823
신관중학교,서울특별시 관악구 신림로48길 17-16,37.48020125,126.9344522
신광여자중학교,서울특별시 용산구 청파로 263,37.54289988,126.9694475
신구중학교,서울특별시 강남구 압구정로36길 17,37.52744229,127.0316727
신길중학교,서울특별시 영등포구 신길로28길 43,37.50203454,126.9154355
신남중학교,서울특별시 양천구 중앙로29길 109,37.52077389,126.8478262
신도고등학교,서울특별시 은평구 통일로 961,37.62913251,126.9187486
신도림고등학교,서울특별시 구로구 경인로67길 159,37.51406292,126.8820838
신도림중학교,서울특별시 구로구 경인로63길 74,37.51074073,126.8848071
신도봉중학교,서울특별시 도봉구 도봉로115길 16,37.64959473,127.0332481
신도중학교,서울특별시 은평구 진관1로 77-30,37.63299312,126.9307131
신동중학교,서울특별시 서초구 나루터로 27,37.5169159,127.0129154
신림고등학교,서울특별시 관악구 문성로 119,37.47921049,126.9169672
신림중학교,서울특별시 관악구 신림로 40,37.47032734,126.946004
신명중학교,서울특별시 강동구 명일로24길 25,37.54181449,127.1492919
신목고등학교,서울특별시 양천구 안양천로 739,37.51290943,126.8736069
신목중학교,서울특별시 양천구 목동중앙로 88,37.53702399,126.8730725
신반포중학교,서울특별시 서초구 신반포로19길 26,37.50626532,126.9961242
신방학중학교,서울특별시 도봉구 시루봉로 156,37.66414043,127.028899
신사중학교,서울특별시 강남구 압구정로 123,37.52465157,127.0209188
신상중학교,서울특별시 노원구 동일로216길 42,37.65190308,127.0639869
신서고등학교,서울특별시 양천구 은행정로 42,37.52391432,126.8602096
신서중학교,서울특별시 양천구 중앙로 206,37.51596644,126.8550164
신수중학교,서울특별시 마포구 신수로 49,37.545923,126.934132
신암중학교,서울특별시 강동구 고덕로 65,37.55636169,127.1336043
신양중학교,서울특별시 광진구 자양강변길 73,37.53365227,127.0634253
신연중학교,서울특별시 서대문구 모래내로 408,37.58267678,126.940382
신원중학교,서울특별시 양천구 가로공원로55길 19,37.5370925,126.8248419
신월중학교,서울특별시 양천구 남부순환로29길 25,37.54046194,126.828389
신일중학교,서울특별시 강북구 솔매로49길 20,37.62796722,127.0284031
신정여자중학교,서울특별시 강서구 등촌로13아길 20,37.53841175,126.8571716
신진과학기술고등학교,서울특별시 은평구 은평로6길 16,37.59871385,126.9188364
신창중학교,서울 노원구 월계로45길 92,37.6285588,127.0474776
신천중학교,서울특별시 송파구 백제고분로 11,37.51625001,127.0792834
신현고등학교,서울특별시 중랑구 봉화산로 174,37.60524904,127.0929499
신현중학교,서울특별시 중랑구 봉화산로 162,37.60446458,127.0915328
신화중학교,서울특별시 양천구 남부순환로29길 35,37.5406111,126.8296004
아시아퍼시픽국제외국인학교,서울특별시 노원구 월계로45가길 57,37.63120699,127.0502962
아주중학교,서울특별시 송파구 올림픽로4길 69,37.50520449,127.0762989
아현산업정보학교,서울특별시 마포구 마포대로 249,37.55702637,126.9580228
아현중학교부설방송통신중학교,서울특별시 마포구 마포대로 247,37.55640071,126.9565
안천중학교,서울특별시 금천구 한내로 69-44,37.45952426,126.8874988
압구정고등학교,서울특별시 강남구 압구정로39길 20,37.53113395,127.0327116
압구정중학교,서울특별시 강남구 압구정로 225,37.53024224,127.0330027
양강중학교,서울특별시 양천구 중앙로 319,37.52491016,126.8496203
양동중학교,서울특별시 양천구 목동중앙북로 49,37.54836875,126.8687172
양서중학교,서울특별시 양천구 남부순환로 380,37.53267581,126.8289726
양재고등학교,서울특별시 서초구 남부순환로346길 9,37.48242164,127.0320796
양정중학교,서울특별시 양천구 안양천로 1039,37.53539226,126.8877343
양진중학교,서울특별시 광진구 워커힐로 32,37.54457517,127.0983114
양천고등학교,서울특별시 양천구 신정로14길 13,37.5083206,126.8452028
양천중학교,서울특별시 양천구 지양로7길 32,37.51900116,126.8305508
양화중학교,서울특별시 영등포구 당산로 56,37.51954792,126.8959408
언남고등학교,서울 서초구 동산로13길 35,37.47233002,127.0430052
언남중학교,서울특별시 서초구 동산로 55,37.47230262,127.0437571
언북중학교,서울특별시 강남구 도산대로38길 27,37.51941115,127.0334905
언주중학교,서울특별시 강남구 선릉로116길 57,37.51465316,127.0466832
여명학교(중),서울특별시 중구 소파로 99,37.55690311,126.9855365
여의도고등학교,서울특별시 영등포구 국제금융로7길 37,37.52505101,126.9342192
여의도여자고등학교,서울특별시 영등포구 국제금융로7가길 13,37.52295392,126.9348574
여의도중학교,서울특별시 영등포구 국제금융로7길 46,37.5239802,126.9357531
역삼중학교,서울특별시 강남구 도곡로43길 10,37.49592949,127.0486129
연북중학교,서울특별시 서대문구 연희로36길 32,37.57755329,126.9382954
연서중학교,서울특별시 은평구 증산서길 125-6,37.58701931,126.9092766
연세대학교,서울 서대문구 신촌동 연세대학교,37.5651616940519,126.93927687604
연세대학교재활학교,서울특별시 서대문구 연세로 50,37.56605084,126.9439162
연신중학교,서울특별시 은평구 연서로33길 16-32,37.62353926,126.9242879
연천중학교,서울특별시 은평구 연서로41길 30,37.62754521,126.9258198
연희중학교,서울특별시 서대문구 증가로 170,37.57958728,126.9187918
염경중학교,서울특별시 강서구 양천로69길 35,37.55453781,126.8705292
염광중학교,서울특별시 노원구 월계로45가길 9,37.63028445,127.0492646
염창중학교,서울특별시 강서구 양천로67가길 83,37.55426407,126.8717473
영남중학교,서울특별시 영등포구 대림로31나길 17,37.49787218,126.8958365
영도중학교,서울특별시 양천구 목동중앙남로 27,37.53631557,126.8657711
영동고등학교,서울특별시 강남구 선릉로 742,37.52138901,127.0437393
영동일고등학교,서울특별시 송파구 석촌호수로 93,37.50997465,127.0894437
영동중학교,서울특별시 서초구 성촌길 14,37.46598629,127.0251407
영등포공업고등학교,서울특별시 강서구 허준로5길 15,37.56983562,126.8500283
영등포여자고등학교,서울특별시 영등포구 영등포로62길 13,37.51538845,126.9153563
영등포중학교,서울특별시 동작구 등용로8길 5,37.50808541,126.9331437
영락의료과학고등학교,서울특별시 관악구 청룡16길 25,37.47654124,126.9454165
영락중학교,서울특별시 은평구 백련산로 134-6,37.5969603,126.9251803
영란여자중학교,서울특별시 중랑구 망우로73길 56,37.6031324,127.1053324
영림중학교,서울특별시 구로구 가마산로27길 17,37.49722811,126.8907179
영서중학교,서울특별시 구로구 도림로20길 35,37.48975239,126.8949101
영신간호비즈니스고등학교,서울특별시 노원구 중계로16나길 13,37.65254851,127.0835087
영신고등학교,서울 영등포구 대방천로14길 18,37.49810094,126.909739
영원중학교,서울특별시 영등포구 영등포로62길 31,37.51497419,126.9136469
영일고등학교,서울특별시 강서구 등촌로51가길 26,37.54728726,126.8620589
영파여자중학교,서울특별시 송파구 올림픽로 565,37.53273715,127.1197402
영훈국제중학교,서울특별시 강북구 도봉로13가길 19,37.61468187,127.0280933
예림디자인고등학교,서울특별시 구로구 오리로21길 2,37.50035507,126.827683
예원학교,서울특별시 중구 정동길 25,37.56702326,126.9715427
예일여자중학교,서울특별시 은평구 연서로 117,37.6109459,126.9147928
오금고등학교,서울특별시 송파구 중대로 247,37.50453217,127.128969
오금중학교,서울특별시 송파구 오금로35길 20,37.5052111,127.1291121
오남중학교,서울특별시 구로구 오리로9길 25,37.48705969,126.837249
오류중학교,서울특별시 구로구 고척로27바길 19,37.50772919,126.846524
오륜중학교,서울특별시 송파구 양재대로 1242,37.51629477,127.1385222
오산중학교,서울특별시 용산구 보광로7길 17,37.52358051,127.0008872
오주중학교,서울특별시 송파구 동남로 281,37.50148425,127.1365065
옥정중학교,서울특별시 성동구 한림말길 11,37.54167037,127.0129832
온곡중학교,서울특별시 노원구 노원로 492,37.66058142,127.0643327
용강중학교,서울특별시 용산구 이촌로65가길 91,37.52157693,126.9754853
용곡중학교,서울특별시 광진구 용마산로22길 76,37.56583399,127.0892753
용마중학교,서울특별시 중랑구 면목로28길 18,37.57450911,127.0862674
용문중학교,서울특별시 성북구 고려대로17가길 46,37.58869033,127.0246608
용산고등학교,서울특별시 용산구 두텁바위로 60,37.54586738,126.9803277
용산중학교,서울특별시 용산구 두텁바위로 74,37.54601254,126.9809129
용산철도고등학교,서울특별시 용산구 서빙고로 24,37.52434167,126.9673581
용화여자고등학교,서울특별시 노원구 동일로 1461,37.65913138,127.0582807
우신중학교,서울특별시 구로구 부일로 917,37.49490231,126.8263536
우촌초등학교,서울특별시 성북구 성북로4길 52-1,37.59564089,127.0114006
운현초등학교,서울특별시 종로구 삼일대로 460,37.57666729,126.9881986
원묵고등학교,서울특별시 중랑구 숙선옹주로 82,37.61523231,127.0855078
원묵중학교,서울특별시 중랑구 신내로23길 57,37.61784163,127.0845539
원촌중학교,서울특별시 서초구 사평대로45길 10,37.5063251,127.0146997
월계고등학교,서울특별시 노원구 초안산로5길 66,37.63167341,127.0483883
월계중학교,서울특별시 노원구 월계로45가길 54,37.63113114,127.0523203
월곡중학교,서울특별시 성북구 장월로 6,37.60698163,127.0482588
월촌중학교,서울특별시 양천구 목동서로 31,37.53706518,126.8827588
위례솔중학교,서울특별시 송파구 위례북로2길 10,37.48725911,127.150355
유석초등학교,서울특별시 강서구 화곡로69길 9,37.56080181,126.8537794
유한공업고등학교,서울특별시 구로구 경인로 8,37.4879766,126.8232907
윤중중학교,서울특별시 영등포구 여의동로3길 3,37.51893021,126.9241232
은석초등학교,서울특별시 동대문구 장안벚꽃로 205,37.57845027,127.0760031
은성중학교,서울특별시 강남구 남부순환로359길 36,37.48834845,127.0350215
은평고등학교,서울특별시 은평구 갈현로15길 47,37.60915205,126.905808
은평대영학교,서울특별시 은평구 갈현로11길 30,37.60561276,126.9063428
은평메디텍고등학교,서울특별시 은평구 진관2로 57-57,37.63534652,126.9297048
은평문화예술정보학교,서울특별시 은평구 가좌로 208,37.58952241,126.9192655
은평중학교,서울특별시 은평구 갈현로17나길 12-1,37.61063518,126.9083472
을지중학교,서울특별시 노원구 덕릉로 580,37.64978791,127.0717084
이수중학교,서울특별시 서초구 방배중앙로3길 32,37.48063003,126.989859
이화여자고등학교,서울특별시 중구 정동길,37.56655471,126.9710372
이화여자대학교,서울 서대문구 대현동 11-1 이화여자대학교,37.5631740311778,126.947807434256
이화여자대학교사범대학부속이화·금란중학교,서울특별시 서대문구 성산로 520,37.56263931,126.9444886
이화여자대학교사범대학부속이화금란고등학교,서울특별시 서대문구 성산로 560,37.56638886,126.9473557
이화여자대학교사범대학부속초등학교,서울특별시 서대문구 성산로 512-39,37.56115022,126.9427751
이화여자외국어고등학교,서울특별시 중구 통일로4길 30,37.56557732,126.9696417
인덕과학기술고등학교,서울특별시 노원구 초안산로 12,37.63025145,127.0544486
인덕대학교,서울 노원구 초안산로 12,37.6302514486494,127.054448642206
인수중학교,서울특별시 강북구 인수봉로75길 10,37.64377191,127.0096671
인왕중학교,서울특별시 서대문구 세검정로4길,37.59217661,126.951676
인창중학교,서울특별시 서대문구 경기대로 65,37.56488513,126.9640232
인헌고등학교,서울특별시 관악구 인헌9길 74,37.47231073,126.9704851
인헌중학교,서울특별시 관악구 인헌9길 35,37.47269621,126.9688402
일신여자중학교,서울특별시 송파구 송파대로38길 8,37.50179413,127.1142413
자양고등학교,서울특별시 광진구 뚝섬로37길 28,37.53607797,127.0733395
자양중학교,서울특별시 광진구 뚝섬로41길 33,37.5357299,127.0743689
자운고등학교,서울특별시 도봉구 노해로69길 150,37.65904641,127.0506907
잠신고등학교,서울특별시 송파구 잠실로 24,37.51470129,127.088283
잠신중학교,서울특별시 송파구 잠실로 12,37.51608175,127.0882432
잠실고등학교,서울특별시 송파구 올림픽로33길 71,37.52293043,127.106515
잠실중학교,서울특별시 송파구 올림픽로35길 130,37.51734717,127.0997283
잠일고등학교,서울특별시 송파구 백제고분로 21,37.51455438,127.0823677
장로회신학대학교,서울 광진구 광장로 5길 25-1(광장동) 장로회신학대학교,37.5486902335292,127.104573818024
장승중학교,서울특별시 동작구 장승배기로10가길 25,37.50314858,126.940834
장안중학교,서울특별시 중랑구 동일로 780,37.6005073,127.0813765
장원중학교,서울특별시 중구 동호로15길 93-34,37.55396452,127.0060429
장위중학교,서울특별시 성북구 장위로4길 70,37.61128177,127.0408746
장충중학교,서울특별시 중구 동호로15길 93,37.5535149,127.006415
장평중학교,서울특별시 동대문구 답십리로72길 158,37.56685961,127.0704776
장훈고등학교,서울특별시 영등포구 영등포로64길 26,37.51334559,126.9162285
재한몽골학교,서울특별시 광진구 광장로1가길 13-10,37.54709344,127.1011043
재현중학교,서울특별시 노원구 덕릉로82길 64,37.66129064,127.0807998
적십자간호대학,서울 종로구 경교장길8,37.5674160717181,126.966305052144
전농중학교,서울특별시 동대문구 사가정로13길 71,37.58204428,127.0592794
전동중학교,서울특별시 동대문구 장안벚꽃로 291,37.58619359,127.0709291
전일중학교,서울특별시 동대문구 사가정로13길 67,37.58250018,127.0583795
정신여자중학교,서울특별시 송파구 올림픽로4길 16,37.50945384,127.0738473
정원여자중학교,서울특별시 서대문구 연희로37안길 51,37.58537524,126.9334305
정의여자중학교,서울특별시 도봉구 노해로49길 69,37.65335584,127.0324273
정화여자중학교,서울특별시 동대문구 홍릉로15길 50,37.58604864,127.0410703
종로산업정보학교,서울특별시 종로구 종로58길 28,37.57257125,127.0171887
종암중학교,서울특별시 성북구 종암로5길 80-17,37.5929706,127.0317476
주몽학교,서울특별시 강동구 상암로 369,37.54619875,127.1633757
중경고등학교,서울특별시 용산구 이촌로84길 34,37.5176804,126.9756383
중계중학교,서울특별시 노원구 덕릉로76길 23,37.65562691,127.0749004
중동고등학교,서울특별시 강남구 일원로 7,37.49371341,127.0806601
중동중학교,서울특별시 강남구 일원로8길 37,37.4885699,127.0786819
중랑중학교,서울특별시 중랑구 동일로140길 33,37.60535089,127.0807928
중산고등학교,서울특별시 강남구 일원로14길 22,37.48574293,127.0814285
중암중학교,서울특별시 마포구 월드컵북로38길 25,37.57241132,126.9033686
중앙대학교 서울캠퍼스,서울 동작구 흑석로 84,37.5047267237807,126.953833907628
중앙대학교사범대학부속고등학교,서울특별시 강남구 선릉로 207,37.49184257,127.0516901
중앙대학교사범대학부속중학교,서울특별시 동작구 서달로 124,37.50362942,126.9617326
중앙대학교사범대학부속초등학교,서울특별시 동작구 서달로 135,37.50526855,126.9601623
중앙여자중학교,서울특별시 서대문구 북아현로11가길 7,37.56317672,126.9540593
중앙중학교,서울특별시 종로구 창덕궁길 164,37.58378822,126.9874726
중원중학교,서울특별시 노원구 공릉로 420,37.64423868,127.0680295
중평중학교,서울특별시 노원구 동일로203길 87,37.63697638,127.0623354
중화고등학교,서울특별시 중랑구 봉화산로27길 62,37.60481461,127.0836541
중화중학교,서울특별시 중랑구 용마산로 364,37.58450379,127.0945608
증산중학교,서울특별시 은평구 증산로5길 27-30,37.58381539,126.9049399
지구촌기독외국인학교,서울특별시 용산구 독서당로 115,37.53674266,127.0117766
지구촌학교 고등학교,서울특별시 구로구 오리로 1189,37.48885973,126.8351769
진관고등학교,서울특별시 은평구 진관4로 26,37.64333857,126.9243825
진관중학교,서울특별시 은평구 진관4로 36,37.64425564,126.9257277
진명여자고등학교,서울특별시 양천구 목동로 170,37.52408341,126.8654652
진선여자중학교,서울특별시 강남구 선릉로85길 27,37.50230289,127.0482866
창덕여자고등학교,서울특별시 송파구 양재대로 1240,37.51627474,127.1402304
창덕여자중학교,서울특별시 중구 정동길 22,37.5664328,126.9692102
창동고등학교,서울특별시 도봉구 노해로62길 7,37.65103577,127.0388191
창동중학교,서울특별시 도봉구 방학로 32,37.66322957,127.0489975
창문여자중학교,서울특별시 강북구 월계로 61,37.61340092,127.035828
창북중학교,서울특별시 도봉구 노해로62길 33,37.64911577,127.0388329
창일중학교,서울특별시 도봉구 노해로66길 60,37.64898859,127.0464446
창천중학교,서울특별시 마포구 백범로1길 56,37.55491782,126.9392951
천왕중학교,서울특별시 구로구 천왕로 63,37.48265442,126.8373336
천일중학교,서울특별시 강동구 천중로 57,37.54584475,127.1281966
천호중학교,서울특별시 강동구 상암로 153,37.54651926,127.139698
청담고등학교,서울특별시 강남구 압구정로 419,37.52794736,127.0438666
청담중학교,서울특별시 강남구 압구정로61길 36,37.52865979,127.0448101
청량고등학교,서울특별시 동대문구 왕산로 303,37.588886,127.051311
청량중학교,서울특별시 동대문구 왕산로 301,37.58821921,127.0506225
청운중학교,서울특별시 종로구 창의문로 51,37.58917094,126.9710886
청원중학교,서울특별시 노원구 한글비석로 506,37.66525155,127.0625329
총신대학교,서울 동작구 사당동 산31-3,37.4908791135567,126.967182104111
추계예술대학교,서울 서대문구 북아현동 190-1 추계예술대학교,37.5627772025805,126.953331564253
충암중학교,서울특별시 은평구 가좌로5길 5,37.58464029,126.9218095
코리아외국인학교,서울특별시 서초구 남부순환로364길 7-16,37.48468977,127.0410419
태랑중학교,서울특별시 노원구 화랑로51나길 51,37.62696092,127.0908073
태릉고등학교,서울특별시 중랑구 신내로23길 36,37.61899254,127.0858198
태릉중학교,서울특별시 중랑구 공릉로2길 60-25,37.61253191,127.0834355
풍납중학교,서울특별시 송파구 올림픽로43길 20,37.52535051,127.1156283
풍문고등학교,서울특별시 강남구 자곡로 152,37.47133617,127.0999634
풍성중학교,서울특별시 송파구 강동대로2길 27,37.52527779,127.1131307
하계중학교,서울특별시 노원구 노원로 261-8,37.64136991,127.0723336
하나고등학교,서울특별시 은평구 연서로 535,37.64163759,126.9369302
하비에르국제학교,서울특별시 종로구 비봉길 23,37.6107365,126.9563721
학력인정 서울자동차고등학교,서울특별시 용산구 백범로45길 15,37.54148839,126.9585619
학력인정 서현초등학교,서울특별시 영등포구 도신로53길 18,37.51230578,126.9155196
학력인정 신동신중학교(2년제),서울특별시 동작구 동작대로33마길 27-1,37.49072357,126.977928
학력인정 일성여자중학교(2년제),서울특별시 마포구 마포대로11다길 11-6,37.55018384,126.9484919
학력인정 정암미용고등학교(2년제),서울특별시 동대문구 왕산로 225,37.5821227,127.0472091
학력인정 진형중학교(2년제),서울특별시 종로구 종로 386,37.57408054,127.0203524
학력인정 청량정보고등학교(2년제),서울특별시 동대문구 답십리로15길 32,37.57773207,127.0476559
학력인정 청암중학교(2년제),서울특별시 노원구 중계로 244,37.65177721,127.0738595
학력인정 한림연예예술고등학교,서울특별시 송파구 충민로 172,37.48510882,127.1333535
학력인정 한림초등학교(4년제),서울특별시 송파구 충민로6길 71,37.47960965,127.135612
한가람고등학교,서울특별시 양천구 목동서로 15,37.53746204,126.8840075
한강미디어고등학교,서울특별시 영등포구 선유로55길 22,37.53930105,126.897109
한강중학교,서울특별시 용산구 녹사평대로 73,37.52361192,126.9927909
한광고등학교,서울특별시 강서구 등촌로13길 110,37.53884371,126.8579393
한국구화학교,서울특별시 강동구 고덕로 295-59,37.55825782,127.1589948
한국방송통신대학교,서울 종로구 동숭동 한국방송통신대학교,37.5813770980378,127.004872670199
한국삼육중학교,서울특별시 노원구 화랑로 815,37.64335737,127.1088503
한국성서대학교,서울 노원구 상계7동 한국성서대학교,37.6805128229615,127.089107001414
한국영등포화교소학교,서울특별시 영등포구 경인로88길 9,37.51319836,126.8997927
한국예술종합학교,서울 성북구 석관동 ,37.6129860183722,127.0614007785
한국외국어대학교,서울 동대문구 이문로 107,37.5982966771548,127.057942413722
한국외국인학교,서울특별시 강남구 개포로 408,37.48514627,127.0626824
한국우진학교,서울특별시 마포구 월드컵북로38길 21,37.57112292,126.9038429
한국육영학교,서울특별시 송파구 충민로6길 15,37.48207093,127.1327564
한국제과학교,서울특별시 영등포구 여의대방로61길 42,37.51596302,126.9220354
한국체육대학교,서울 송파구 오륜동 한국체육대학교,37.5154162110562,127.134305677243
한국켄트외국인학교,서울특별시 광진구 자양로35길 13,37.54708842,127.0864327
한국폴리텍 I 대학 서울강서캠퍼스,서울 강서구 화곡동 산60-1,37.5504023690235,126.843553181181
한국폴리텍Ⅰ대학 서울정수캠퍼스,서울 용산구 보광로 73(보광동 238),37.5299749717494,126.996816950671
한국한성화교소학교,서울특별시 중구 명동2길 35,37.56222273,126.9837555
한국한성화교중고등학교,서울특별시 서대문구 연희로 176,37.57150361,126.9383783
한빛맹학교,서울특별시 강북구 삼양로73가길 47,37.62789211,127.0157138
한산중학교,서울특별시 강동구 풍성로 251,37.52890274,127.1403034
한서고등학교,서울특별시 강서구 양천로11길 47,37.5747927,126.8081439
한성과학고등학교,서울특별시 서대문구 통일로 279-79,37.57543617,126.9523709
한성대학교,서울 성북구 삼선동3가 389 한성대학교,37.5865085302362,127.013092803419
한성여자고등학교,서울특별시 성북구 삼선교로16길 117,37.5830649,127.0117427
한성여자중학교,서울특별시 성북구 삼선교로16길 118,37.5819996,127.0113127
한성중학교,서울특별시 서대문구 북아현로1길 24,37.55909644,126.9544565
한세사이버보안고등학교,서울특별시 마포구 마포대로11길 44-80,37.55173969,126.9521364
한양대학교,서울특별시 성동구 왕십리로 222 ,37.5545035492027,127.046611216789
한양대학교사범대학부속중학교,서울특별시 성동구 마조로 42,37.56191884,127.042324
한양여자대학교,서울 성동구 행당동 살곶이길 200,37.5563428160975,127.041881433393
한양중학교,서울특별시 중구 을지로 299,37.5658716,127.0114433
한양초등학교,서울특별시 성동구 살곶이길 208,37.55762103,127.0502634
한영신학대학교,서울 구로구 경인로 290-42  한영신학대학교,37.4965810660171,126.8512499816
한영중학교,서울특별시 강동구 동남로 832,37.54908447,127.1569276
한울중학교,서울특별시 금천구 독산로50길 60,37.46240531,126.9071703
한천중학교,서울특별시 노원구 공릉로 265,37.63127216,127.0721178
항동중학교,서울특별시 구로구 연동로 239-2,37.48283808,126.8203721
해누리중학교,서울특별시 송파구 송파대로37길 95,37.49841159,127.1021242
해성여자고등학교,서울특별시 동대문구 전농로20길 31,37.5818726,127.0569769
행당중학교,서울특별시 성동구 왕십리로 189,37.55455404,127.0419634
현대고등학교,서울특별시 강남구 압구정로 127,37.5254805,127.0223773
혜성여자고등학교,서울특별시 노원구 노원로16길 2,37.64055021,127.0736197
혜원여자중학교,서울특별시 중랑구 봉우재로58길 39,37.59327987,127.0970427
혜화여자고등학교,서울특별시 강북구 인수봉로 127,37.63130842,127.013212
홍은중학교,서울특별시 서대문구 연희로41길 94,37.59189151,126.9357524
홍익대학교,서울특별시 마포구 와우산로 94(상수동),37.5525245968145,126.9250355422
홍익대학교사범대학부속여자중학교,서울특별시 마포구 성미산로 51,37.55966516,126.9129287
홍익대학교사범대학부속중학교,서울특별시 성북구 성북로14가길 23,37.59366662,127.002805
화계중학교,서울특별시 강북구 화계사길 63,37.63251806,127.0097091
화곡고등학교,서울특별시 강서구 강서로45길 69,37.54793611,126.8315357
화곡중학교,서울특별시 강서구 강서로45길 70,37.5484056,126.8326573
화랑초등학교,서울특별시 노원구 화랑로 621,37.62738159,127.0916212
화원중학교,서울특별시 강서구 강서로17나길 86,37.53621409,126.8424135
환일중학교,서울특별시 중구 환일길 47,37.55375593,126.9625884
효문중학교,서울특별시 도봉구 우이천로 432,37.65269871,127.0184005
휘경여자중학교,서울특별시 동대문구 한천로 247,37.58190052,127.0674341
휘경중학교,서울특별시 동대문구 망우로18나길 20,37.58709299,127.0617461
휘문중학교,서울특별시 강남구 역삼로 541,37.50528945,127.0619939
휘봉고등학교,서울특별시 동대문구 한천로 290,37.58637236,127.0689407
